{
"type": "FeatureCollection",
"name": "FEB",
"crs": { "type": "name", "properties": { "name": "urn:ogc:def:crs:OGC:1.3:CRS84" } },
"features": [
{ "type": "Feature", "properties": { "Name": "FEB", "description": null, "timestamp": null, "begin": null, "end": null, "altitudeMode": null, "tessellate": -1, "extrude": 0, "visibility": -1, "drawOrder": null, "icon": null }, "geometry": { "type": "Polygon", "coordinates": [ [ [ 115.1689828168616, -8.797741012700719, 0.0 ], [ 115.1696505015681, -8.797641340850438, 0.0 ], [ 115.169941062192805, -8.796734928204943, 0.0 ], [ 115.169390313507904, -8.796595790029532, 0.0 ], [ 115.169239404257794, -8.79717608814893, 0.0 ], [ 115.168881646206103, -8.79729125510023, 0.0 ], [ 115.1689828168616, -8.797741012700719, 0.0 ] ] ] } },
{ "type": "Feature", "properties": { "Name": "FEB", "description": null, "timestamp": null, "begin": null, "end": null, "altitudeMode": null, "tessellate": -1, "extrude": 0, "visibility": -1, "drawOrder": null, "icon": null }, "geometry": { "type": "Polygon", "coordinates": [ [ [ 115.169138323631401, -8.798643423577944, 0.0 ], [ 115.168605045718806, -8.798630666362781, 0.0 ], [ 115.168613401687907, -8.799205051133445, 0.0 ], [ 115.168276436665806, -8.799256744703742, 0.0 ], [ 115.167907060454496, -8.799240785867797, 0.0 ], [ 115.167914316791993, -8.799393586456834, 0.0 ], [ 115.168261070048501, -8.799414000397904, 0.0 ], [ 115.168253533332106, -8.799531614161396, 0.0 ], [ 115.1685708900375, -8.799558524470967, 0.0 ], [ 115.169432046800594, -8.799583948967614, 0.0 ], [ 115.169411050054194, -8.798909649657638, 0.0 ], [ 115.169278137757402, -8.798902838563196, 0.0 ], [ 115.169276381075704, -8.798642508661118, 0.0 ], [ 115.169138323631401, -8.798643423577944, 0.0 ] ] ] } }
]
}
