{
"type": "FeatureCollection",
"name": "FMIPA",
"crs": { "type": "name", "properties": { "name": "urn:ogc:def:crs:OGC:1.3:CRS84" } },
"features": [
{ "type": "Feature", "properties": { "Name": "Fmipa", "description": null, "timestamp": null, "begin": null, "end": null, "altitudeMode": null, "tessellate": -1, "extrude": 0, "visibility": -1, "drawOrder": null, "icon": null }, "geometry": { "type": "Polygon", "coordinates": [ [ [ 115.178067485579007, -8.792696102674272, 0.0 ], [ 115.1782129401916, -8.7927198376336, 0.0 ], [ 115.178409126463507, -8.792736218216591, 0.0 ], [ 115.178721171839101, -8.792765890897801, 0.0 ], [ 115.178853092341498, -8.792774190234802, 0.0 ], [ 115.178901533173899, -8.792665008309866, 0.0 ], [ 115.178918408751301, -8.792539432899412, 0.0 ], [ 115.178995336921801, -8.792397762688021, 0.0 ], [ 115.179078339509502, -8.792285984130615, 0.0 ], [ 115.179125227438504, -8.792175432212545, 0.0 ], [ 115.179161603345307, -8.792126360010215, 0.0 ], [ 115.178699575395797, -8.792102377043687, 0.0 ], [ 115.178372602048498, -8.792092783571423, 0.0 ], [ 115.178071311779206, -8.792069138194369, 0.0 ], [ 115.178055087629005, -8.792215544216557, 0.0 ], [ 115.178067485579007, -8.792696102674272, 0.0 ] ] ] } },
{ "type": "Feature", "properties": { "Name": "Fmipa", "description": null, "timestamp": null, "begin": null, "end": null, "altitudeMode": null, "tessellate": -1, "extrude": 0, "visibility": -1, "drawOrder": null, "icon": null }, "geometry": { "type": "Polygon", "coordinates": [ [ [ 115.169416670570101, -8.798902755663203, 0.0 ], [ 115.169442940623796, -8.799640443247219, 0.0 ], [ 115.170546603425507, -8.799599458392398, 0.0 ], [ 115.170536858546896, -8.799226443412802, 0.0 ], [ 115.169870647128604, -8.799256094151129, 0.0 ], [ 115.169830132551397, -8.798646824620302, 0.0 ], [ 115.169278777006994, -8.798652003854068, 0.0 ], [ 115.169278353440703, -8.798906318143532, 0.0 ], [ 115.169416670570101, -8.798902755663203, 0.0 ] ] ] } },
{ "type": "Feature", "properties": { "Name": "Fmipa", "description": null, "timestamp": null, "begin": null, "end": null, "altitudeMode": null, "tessellate": -1, "extrude": 0, "visibility": -1, "drawOrder": null, "icon": null }, "geometry": { "type": "Polygon", "coordinates": [ [ [ 115.171022984609706, -8.799925913584271, 0.0 ], [ 115.171366096248306, -8.799940420066783, 0.0 ], [ 115.171367658307503, -8.80005952773158, 0.0 ], [ 115.172523372648897, -8.800066059489165, 0.0 ], [ 115.172520382195998, -8.799566529796881, 0.0 ], [ 115.172276850077296, -8.799552638625501, 0.0 ], [ 115.172293339358902, -8.798952597067947, 0.0 ], [ 115.171644099531903, -8.798943533760475, 0.0 ], [ 115.171038893289307, -8.798917547684383, 0.0 ], [ 115.171022984609706, -8.799925913584271, 0.0 ] ] ] } }
]
}
