{
"type": "FeatureCollection",
"name": "FT",
"crs": { "type": "name", "properties": { "name": "urn:ogc:def:crs:OGC:1.3:CRS84" } },
"features": [
{ "type": "Feature", "properties": { "Name": "FTeknik", "description": null, "timestamp": null, "begin": null, "end": null, "altitudeMode": null, "tessellate": -1, "extrude": 0, "visibility": -1, "drawOrder": null, "icon": null }, "geometry": { "type": "Polygon", "coordinates": [ [ [ 115.175753944663796, -8.795450382193547, 0.0 ], [ 115.175609473125306, -8.795876226584211, 0.0 ], [ 115.175487000663296, -8.796287765262312, 0.0 ], [ 115.1759557479633, -8.796345726750644, 0.0 ], [ 115.176216296255404, -8.796420398353023, 0.0 ], [ 115.176551310510305, -8.796496843356861, 0.0 ], [ 115.176931757627798, -8.796554132388456, 0.0 ], [ 115.177257583674702, -8.796560158616286, 0.0 ], [ 115.177302915902104, -8.796425888700405, 0.0 ], [ 115.177373067409704, -8.796082079258056, 0.0 ], [ 115.177421429461802, -8.79580713960266, 0.0 ], [ 115.177454873503294, -8.795630585434377, 0.0 ], [ 115.177529186514306, -8.795426110613846, 0.0 ], [ 115.177617178262594, -8.795098981620271, 0.0 ], [ 115.177485381143697, -8.79508086566095, 0.0 ], [ 115.1769143287665, -8.794968888740248, 0.0 ], [ 115.176499140068898, -8.794826031931162, 0.0 ], [ 115.176320263566893, -8.795272880027495, 0.0 ], [ 115.175880528620795, -8.795140702981188, 0.0 ], [ 115.175753944663796, -8.795450382193547, 0.0 ] ] ] } },
{ "type": "Feature", "properties": { "Name": "Fteknik", "description": null, "timestamp": null, "begin": null, "end": null, "altitudeMode": null, "tessellate": -1, "extrude": 0, "visibility": -1, "drawOrder": null, "icon": null }, "geometry": { "type": "Polygon", "coordinates": [ [ [ 115.175283179608897, -8.797635606722459, 0.0 ], [ 115.175298804390096, -8.79804811871063, 0.0 ], [ 115.175467741251296, -8.798221570500449, 0.0 ], [ 115.175676552458199, -8.798537481766664, 0.0 ], [ 115.176237806499898, -8.798529286632693, 0.0 ], [ 115.176314490562902, -8.79812371432023, 0.0 ], [ 115.1763915066376, -8.797694287516361, 0.0 ], [ 115.176186867086003, -8.797586931672489, 0.0 ], [ 115.176048463643397, -8.797536860660108, 0.0 ], [ 115.176018559567396, -8.797434782217879, 0.0 ], [ 115.175610503029901, -8.79742399286248, 0.0 ], [ 115.175193996220102, -8.797393021407098, 0.0 ], [ 115.175283179608897, -8.797635606722459, 0.0 ] ] ] } }
]
}
