{
"type": "FeatureCollection",
"name": "FTP",
"crs": { "type": "name", "properties": { "name": "urn:ogc:def:crs:OGC:1.3:CRS84" } },
"features": [
{ "type": "Feature", "properties": { "Name": "FTP", "description": null, "timestamp": null, "begin": null, "end": null, "altitudeMode": null, "tessellate": -1, "extrude": 0, "visibility": -1, "drawOrder": null, "icon": null }, "geometry": { "type": "Polygon", "coordinates": [ [ [ 115.169834656785099, -8.798641050072336, 0.0 ], [ 115.169840592281503, -8.798750158004141, 0.0 ], [ 115.170687080470302, -8.798736913030973, 0.0 ], [ 115.170671394600006, -8.798456474863055, 0.0 ], [ 115.170509459333104, -8.798467844748908, 0.0 ], [ 115.170506721508602, -8.798140730785242, 0.0 ], [ 115.169668373162594, -8.798177953977875, 0.0 ], [ 115.169700248123505, -8.798648352178221, 0.0 ], [ 115.169834656785099, -8.798641050072336, 0.0 ] ] ] } },
{ "type": "Feature", "properties": { "Name": "FTP", "description": null, "timestamp": null, "begin": null, "end": null, "altitudeMode": null, "tessellate": -1, "extrude": 0, "visibility": -1, "drawOrder": null, "icon": null }, "geometry": { "type": "Polygon", "coordinates": [ [ [ 115.1701035958353, -8.796003077709562, 0.0 ], [ 115.170340885972195, -8.795627805028417, 0.0 ], [ 115.169952122155095, -8.795388398608781, 0.0 ], [ 115.170004777494199, -8.795301946179732, 0.0 ], [ 115.169832589079704, -8.795209569323305, 0.0 ], [ 115.169717297714101, -8.795409569538869, 0.0 ], [ 115.169802625981802, -8.795450303990556, 0.0 ], [ 115.169638538524197, -8.795735184105981, 0.0 ], [ 115.1701035958353, -8.796003077709562, 0.0 ] ] ] } }
]
}
