{
"type": "FeatureCollection",
"name": "SEBARAN FAKULTAS",
"crs": { "type": "name", "properties": { "name": "urn:ogc:def:crs:OGC:1.3:CRS84" } },
"features": [
{ "type": "Feature", "properties": { "Name": "Fapet", "description": null, "timestamp": null, "begin": null, "end": null, "altitudeMode": null, "tessellate": -1, "extrude": 0, "visibility": -1, "drawOrder": null, "icon": null }, "geometry": { "type": "Polygon", "coordinates": [ [ [ 115.177674469660005, -8.791116602985962, 0.0 ], [ 115.177694057910301, -8.791202426123434, 0.0 ], [ 115.177642325053995, -8.791378268133116, 0.0 ], [ 115.1775347995099, -8.79144369214896, 0.0 ], [ 115.177524119991801, -8.791757990677432, 0.0 ], [ 115.178087028170907, -8.791780455233624, 0.0 ], [ 115.178068608945594, -8.792071806496944, 0.0 ], [ 115.179099390084005, -8.79212003546631, 0.0 ], [ 115.179206817728996, -8.792133177058055, 0.0 ], [ 115.1794358504646, -8.792107533029061, 0.0 ], [ 115.179607316963398, -8.792065105731288, 0.0 ], [ 115.179705794209298, -8.791769059696133, 0.0 ], [ 115.179737724124706, -8.791614589739002, 0.0 ], [ 115.179820811829401, -8.791535232769123, 0.0 ], [ 115.179852714401306, -8.791338122503779, 0.0 ], [ 115.179877762570399, -8.791059363326012, 0.0 ], [ 115.1799102934432, -8.790605558469514, 0.0 ], [ 115.179840413851807, -8.790356035983962, 0.0 ], [ 115.179734121538004, -8.790140731087881, 0.0 ], [ 115.179450721077799, -8.790044217016769, 0.0 ], [ 115.179194012775696, -8.789988191858075, 0.0 ], [ 115.178880790835095, -8.78988943255691, 0.0 ], [ 115.178597286111199, -8.789750694373129, 0.0 ], [ 115.178331101647501, -8.789588804341887, 0.0 ], [ 115.178171821982801, -8.789487280537452, 0.0 ], [ 115.178038284797594, -8.789517508782318, 0.0 ], [ 115.177991068796501, -8.78963961264888, 0.0 ], [ 115.177980088613594, -8.789865529372175, 0.0 ], [ 115.177971876474899, -8.79016031579072, 0.0 ], [ 115.177979210730498, -8.790509253431532, 0.0 ], [ 115.178005995493507, -8.790736515726584, 0.0 ], [ 115.177998277200501, -8.790949238229482, 0.0 ], [ 115.177946037275206, -8.79106970886779, 0.0 ], [ 115.177802130684896, -8.791082243676819, 0.0 ], [ 115.177581626641697, -8.791054454329348, 0.0 ], [ 115.177586848410996, -8.791108889363347, 0.0 ], [ 115.177674469660005, -8.791116602985962, 0.0 ] ] ] } },
{ "type": "Feature", "properties": { "Name": "Poliklinik", "description": null, "timestamp": null, "begin": null, "end": null, "altitudeMode": null, "tessellate": -1, "extrude": 0, "visibility": -1, "drawOrder": null, "icon": null }, "geometry": { "type": "Polygon", "coordinates": [ [ [ 115.177520171492304, -8.79197960995508, 0.0 ], [ 115.177497307759594, -8.792153615824176, 0.0 ], [ 115.177442849363402, -8.792333532148662, 0.0 ], [ 115.177629004579799, -8.792355278688554, 0.0 ], [ 115.177828722079198, -8.792365768192685, 0.0 ], [ 115.178054487640694, -8.792373399838832, 0.0 ], [ 115.1780526335681, -8.792219490698821, 0.0 ], [ 115.1780609029353, -8.792103349827961, 0.0 ], [ 115.178077608778693, -8.791944351461822, 0.0 ], [ 115.178077933467506, -8.791782042738317, 0.0 ], [ 115.177791254458697, -8.791779760581854, 0.0 ], [ 115.177537508882097, -8.791766081081702, 0.0 ], [ 115.177520171492304, -8.79197960995508, 0.0 ] ] ] } },
{ "type": "Feature", "properties": { "Name": "FPertanian", "description": null, "timestamp": null, "begin": null, "end": null, "altitudeMode": null, "tessellate": -1, "extrude": 0, "visibility": -1, "drawOrder": null, "icon": null }, "geometry": { "type": "Polygon", "coordinates": [ [ [ 115.177413291397201, -8.793328398992182, 0.0 ], [ 115.177622106432594, -8.793379874707066, 0.0 ], [ 115.178154971701701, -8.79361053888652, 0.0 ], [ 115.178675064413895, -8.793796577840293, 0.0 ], [ 115.178710700885503, -8.793756308908005, 0.0 ], [ 115.178895778153603, -8.793361326889086, 0.0 ], [ 115.179064657550498, -8.792927534982159, 0.0 ], [ 115.178834156559802, -8.792863659339229, 0.0 ], [ 115.178852296820807, -8.792778017972667, 0.0 ], [ 115.178066842660797, -8.792689038392268, 0.0 ], [ 115.177956533139707, -8.792637847954598, 0.0 ], [ 115.177516158423501, -8.792567571206732, 0.0 ], [ 115.177413291397201, -8.793328398992182, 0.0 ] ] ] } },
{ "type": "Feature", "properties": { "Name": "FKH", "description": null, "timestamp": null, "begin": null, "end": null, "altitudeMode": null, "tessellate": -1, "extrude": 0, "visibility": -1, "drawOrder": null, "icon": null }, "geometry": { "type": "Polygon", "coordinates": [ [ [ 115.176493087165994, -8.800282789318404, 0.0 ], [ 115.176312531781804, -8.800731665923005, 0.0 ], [ 115.176715665093496, -8.800897836693057, 0.0 ], [ 115.176903428010107, -8.800435600124398, 0.0 ], [ 115.176493087165994, -8.800282789318404, 0.0 ] ] ] } },
{ "type": "Feature", "properties": { "Name": "Fisip", "description": null, "timestamp": null, "begin": null, "end": null, "altitudeMode": null, "tessellate": -1, "extrude": 0, "visibility": -1, "drawOrder": null, "icon": null }, "geometry": { "type": "Polygon", "coordinates": [ [ [ 115.176717280703301, -8.800897013040863, 0.0 ], [ 115.177203979141396, -8.801106336478176, 0.0 ], [ 115.177357513764306, -8.800675507290464, 0.0 ], [ 115.177250217451601, -8.800622443951065, 0.0 ], [ 115.177269056816797, -8.800547657318054, 0.0 ], [ 115.176909737086902, -8.800426248255723, 0.0 ], [ 115.176717280703301, -8.800897013040863, 0.0 ] ] ] } },
{ "type": "Feature", "properties": { "Name": "Perpustakaan", "description": null, "timestamp": null, "begin": null, "end": null, "altitudeMode": null, "tessellate": -1, "extrude": 0, "visibility": -1, "drawOrder": null, "icon": null }, "geometry": { "type": "Polygon", "coordinates": [ [ [ 115.172527414513496, -8.79977250257369, 0.0 ], [ 115.172992443979098, -8.799760472525049, 0.0 ], [ 115.173112620238797, -8.799316175658618, 0.0 ], [ 115.173254724183806, -8.798973888097057, 0.0 ], [ 115.172500751658006, -8.798945257762364, 0.0 ], [ 115.172527414513496, -8.79977250257369, 0.0 ] ] ] } },
{ "type": "Feature", "properties": { "Name": "FKP", "description": null, "timestamp": null, "begin": null, "end": null, "altitudeMode": null, "tessellate": -1, "extrude": 0, "visibility": -1, "drawOrder": null, "icon": null }, "geometry": { "type": "Polygon", "coordinates": [ [ [ 115.169172210012505, -8.79855661503051, 0.0 ], [ 115.169688876433895, -8.798513986902869, 0.0 ], [ 115.169661570601704, -8.798176536502559, 0.0 ], [ 115.170425564937105, -8.798140009800774, 0.0 ], [ 115.170408613907696, -8.797796868445349, 0.0 ], [ 115.169114266846407, -8.797935845615168, 0.0 ], [ 115.169172210012505, -8.79855661503051, 0.0 ] ] ] } },
{ "type": "Feature", "properties": { "Name": "Fpar", "description": null, "timestamp": null, "begin": null, "end": null, "altitudeMode": null, "tessellate": -1, "extrude": 0, "visibility": -1, "drawOrder": null, "icon": null }, "geometry": { "type": "Polygon", "coordinates": [ [ [ 115.167164096732293, -8.798379020782349, 0.0 ], [ 115.167149954279495, -8.798927974322396, 0.0 ], [ 115.167150903916905, -8.799153074014825, 0.0 ], [ 115.166871411503195, -8.799151473917483, 0.0 ], [ 115.166873431285595, -8.799295972897591, 0.0 ], [ 115.167215894199401, -8.799314486358195, 0.0 ], [ 115.167487189340207, -8.799318755215884, 0.0 ], [ 115.167490859645099, -8.798952215005842, 0.0 ], [ 115.167848733903597, -8.798944426374566, 0.0 ], [ 115.167849603477507, -8.798849740468176, 0.0 ], [ 115.167985737885004, -8.798850762863481, 0.0 ], [ 115.168008049259598, -8.798370329971352, 0.0 ], [ 115.167164096732293, -8.798379020782349, 0.0 ] ] ] } },
{ "type": "Feature", "properties": { "Name": "FH", "description": null, "timestamp": null, "begin": null, "end": null, "altitudeMode": null, "tessellate": -1, "extrude": 0, "visibility": -1, "drawOrder": null, "icon": null }, "geometry": { "type": "Polygon", "coordinates": [ [ [ 115.166326850067307, -8.799142293064358, 0.0 ], [ 115.167147707412298, -8.799153396279372, 0.0 ], [ 115.167164211335106, -8.798395508706507, 0.0 ], [ 115.166350767166094, -8.798378120242466, 0.0 ], [ 115.166356778640505, -8.798701624352834, 0.0 ], [ 115.166339990740596, -8.799028836209684, 0.0 ], [ 115.166326850067307, -8.799142293064358, 0.0 ] ] ] } },
{ "type": "Feature", "properties": { "Name": "FIB/KUI", "description": null, "timestamp": null, "begin": null, "end": null, "altitudeMode": null, "tessellate": -1, "extrude": 0, "visibility": -1, "drawOrder": null, "icon": null }, "geometry": { "type": "Polygon", "coordinates": [ [ [ 115.167126126325201, -8.79931439247116, 0.0 ], [ 115.167134139642997, -8.799706656115029, 0.0 ], [ 115.167521961438595, -8.799722148062553, 0.0 ], [ 115.167532191765602, -8.799501908718367, 0.0 ], [ 115.167901506590098, -8.79950205304471, 0.0 ], [ 115.1678975428146, -8.799231852294932, 0.0 ], [ 115.168326863934794, -8.799250218843126, 0.0 ], [ 115.168341782150904, -8.798867579747778, 0.0 ], [ 115.167856569210301, -8.798850902879726, 0.0 ], [ 115.167846429752402, -8.798946530910655, 0.0 ], [ 115.167481576313705, -8.798946369946673, 0.0 ], [ 115.167486025482305, -8.799322177484035, 0.0 ], [ 115.167126126325201, -8.79931439247116, 0.0 ] ] ] } },
{ "type": "Feature", "properties": { "Name": "FIB", "description": null, "timestamp": null, "begin": null, "end": null, "altitudeMode": null, "tessellate": -1, "extrude": 0, "visibility": -1, "drawOrder": null, "icon": null }, "geometry": { "type": "Polygon", "coordinates": [ [ [ 115.170817252987604, -8.795233689138257, 0.0 ], [ 115.171473933375907, -8.795241482003478, 0.0 ], [ 115.171450906226298, -8.794561171834099, 0.0 ], [ 115.1707971661192, -8.794555060189085, 0.0 ], [ 115.170817252987604, -8.795233689138257, 0.0 ] ] ] } },
{ "type": "Feature", "properties": { "Name": "Lecture Building", "description": null, "timestamp": null, "begin": null, "end": null, "altitudeMode": null, "tessellate": -1, "extrude": 0, "visibility": -1, "drawOrder": null, "icon": null }, "geometry": { "type": "Polygon", "coordinates": [ [ [ 115.172420307028503, -8.792963623680469, 0.0 ], [ 115.172289934123, -8.792913470387321, 0.0 ], [ 115.171777404856698, -8.79277389598005, 0.0 ], [ 115.171560459509294, -8.79268414961467, 0.0 ], [ 115.171396433727693, -8.792709144282437, 0.0 ], [ 115.171234043873397, -8.792841787628502, 0.0 ], [ 115.171245251342697, -8.793019380973679, 0.0 ], [ 115.171256234661101, -8.793376940891353, 0.0 ], [ 115.171403706360394, -8.793510034412105, 0.0 ], [ 115.171478815338105, -8.793686000237917, 0.0 ], [ 115.171444693022593, -8.793904289976284, 0.0 ], [ 115.171958948662507, -8.793868294139592, 0.0 ], [ 115.172014098058696, -8.793770962663315, 0.0 ], [ 115.172171792708099, -8.793747402358397, 0.0 ], [ 115.172420307028503, -8.792963623680469, 0.0 ] ] ] } },
{ "type": "Feature", "properties": { "Name": "Fakultas Kedokteran", "description": null, "timestamp": null, "begin": null, "end": null, "altitudeMode": null, "tessellate": -1, "extrude": 0, "visibility": -1, "drawOrder": null, "icon": null }, "geometry": { "type": "Polygon", "coordinates": [ [ [ 115.172414397996405, -8.789534703076251, 0.0 ], [ 115.172459995796103, -8.789811484075029, 0.0 ], [ 115.172669208227106, -8.789880776646733, 0.0 ], [ 115.172904261504101, -8.789894722649162, 0.0 ], [ 115.1732128053021, -8.789882232030017, 0.0 ], [ 115.173326695103697, -8.789630384703466, 0.0 ], [ 115.173296587101603, -8.789267586020967, 0.0 ], [ 115.172414397996405, -8.789534703076251, 0.0 ] ] ] } }
]
}
