{
"type": "FeatureCollection",
"name": "DataPolygon_SHP_Unud",
"features": [
{ "type": "Feature", "properties": { "NO.SHP": "SHP 79" }, "geometry": { "type": "MultiPolygon", "coordinates": [ [ [ [ 115.1645192, -8.7991645 ], [ 115.1647225, -8.7992424 ], [ 115.165863, -8.7977585 ], [ 115.1658003, -8.7977239 ], [ 115.1658966, -8.7976517 ], [ 115.1659167, -8.7976132 ], [ 115.1658298, -8.7976148 ], [ 115.1658702, -8.7975258 ], [ 115.1655427, -8.7974189 ], [ 115.1653258, -8.797367 ], [ 115.165399, -8.7972363 ], [ 115.1648145, -8.7970931 ], [ 115.1645806, -8.7979506 ], [ 115.164571, -8.7979849 ], [ 115.1648629, -8.7980949 ], [ 115.1647492, -8.7985224 ], [ 115.1642419, -8.7983798 ], [ 115.1632984, -8.7982963 ], [ 115.1632677, -8.7982807 ], [ 115.1635169, -8.797709 ], [ 115.1636008, -8.7973938 ], [ 115.1637059, -8.7970231 ], [ 115.1637361, -8.7968373 ], [ 115.1637661, -8.7967217 ], [ 115.16385, -8.7963714 ], [ 115.163848, -8.796221 ], [ 115.1637528, -8.7960814 ], [ 115.1636646, -8.7959533 ], [ 115.1635335, -8.7959435 ], [ 115.1632171, -8.7959212 ], [ 115.1629729, -8.7959056 ], [ 115.1627012, -8.7958219 ], [ 115.1624732, -8.7957302 ], [ 115.1624215, -8.7957915 ], [ 115.1626913, -8.7958708 ], [ 115.1629451, -8.7959596 ], [ 115.1630841, -8.7959831 ], [ 115.1632622, -8.7960476 ], [ 115.1636657, -8.7961616 ], [ 115.1636658, -8.7961755 ], [ 115.163502, -8.7970043 ], [ 115.1632495, -8.7978538 ], [ 115.1632133, -8.7978984 ], [ 115.1631883, -8.7979601 ], [ 115.1611244, -8.7974849 ], [ 115.1609855, -8.7976577 ], [ 115.1609412, -8.7977917 ], [ 115.160928, -8.797958 ], [ 115.1610768, -8.7980463 ], [ 115.1627319, -8.7985719 ], [ 115.1636613, -8.7988523 ], [ 115.1640684, -8.7990016 ], [ 115.1645192, -8.7991645 ] ] ], [ [ [ 115.1662831, -8.7932271 ], [ 115.1661299, -8.7934416 ], [ 115.1660828, -8.7935076 ], [ 115.1659769, -8.7936959 ], [ 115.1659508, -8.7937603 ], [ 115.1661951, -8.7937516 ], [ 115.1662252, -8.7937735 ], [ 115.1660921, -8.7940425 ], [ 115.1658435, -8.7949791 ], [ 115.1669009, -8.7954395 ], [ 115.1671692, -8.7956153 ], [ 115.1666525, -8.7974411 ], [ 115.1664305, -8.7978586 ], [ 115.1663701, -8.7979553 ], [ 115.1659596, -8.7978089 ], [ 115.165863, -8.7977585 ], [ 115.1647225, -8.7992424 ], [ 115.1651115, -8.7993612 ], [ 115.1651852, -8.7993296 ], [ 115.1653013, -8.7991869 ], [ 115.1654893, -8.7989313 ], [ 115.1657943, -8.7987032 ], [ 115.1659729, -8.798579 ], [ 115.1661347, -8.7983253 ], [ 115.166464, -8.7981702 ], [ 115.166715, -8.7981325 ], [ 115.1670346, -8.7980456 ], [ 115.1672318, -8.7979295 ], [ 115.1673157, -8.7978221 ], [ 115.16733, -8.7977019 ], [ 115.1672953, -8.7974878 ], [ 115.1673323, -8.7973885 ], [ 115.1674349, -8.7971486 ], [ 115.1674869, -8.7970383 ], [ 115.1675911, -8.79692 ], [ 115.1676961, -8.7966547 ], [ 115.1678516, -8.7965028 ], [ 115.1680235, -8.7962569 ], [ 115.1682439, -8.7961201 ], [ 115.1683347, -8.7960201 ], [ 115.1685016, -8.7958338 ], [ 115.1686316, -8.7956795 ], [ 115.1687557, -8.7955886 ], [ 115.1688833, -8.795498 ], [ 115.1689551, -8.7953611 ], [ 115.1689551, -8.7951753 ], [ 115.1689009, -8.7949977 ], [ 115.1688588, -8.7948628 ], [ 115.1688156, -8.7947322 ], [ 115.1688057, -8.7945619 ], [ 115.1688169, -8.7942336 ], [ 115.1687891, -8.7939869 ], [ 115.1687227, -8.7936643 ], [ 115.1687003, -8.7934896 ], [ 115.1686635, -8.7932976 ], [ 115.1685277, -8.792954 ], [ 115.1684521, -8.7928863 ], [ 115.1683714, -8.79289 ], [ 115.168289, -8.7929288 ], [ 115.168137, -8.7930159 ], [ 115.1679782, -8.79303 ], [ 115.1677303, -8.7930009 ], [ 115.1675449, -8.7929902 ], [ 115.1674342, -8.7929704 ], [ 115.1672312, -8.7929422 ], [ 115.167188, -8.7929574 ], [ 115.1670025, -8.7928093 ], [ 115.1668454, -8.792667 ], [ 115.1667947, -8.7926943 ], [ 115.1665745, -8.792885 ], [ 115.1664426, -8.7930325 ], [ 115.1662831, -8.7932271 ] ] ] ] } },
{ "type": "Feature", "properties": { "NO.SHP": "SHP 19" }, "geometry": { "type": "MultiPolygon", "coordinates": [ [ [ [ 115.1664854, -8.7952747 ], [ 115.1661611, -8.7961971 ], [ 115.1660556, -8.7964512 ], [ 115.1657909, -8.7970693 ], [ 115.1663333, -8.7973034 ], [ 115.1669009, -8.7954395 ], [ 115.1664854, -8.7952747 ] ] ], [ [ [ 115.1671692, -8.7956153 ], [ 115.1669009, -8.7954395 ], [ 115.1669018, -8.795443 ], [ 115.1663333, -8.7973034 ], [ 115.1666525, -8.7974411 ], [ 115.1671692, -8.7956153 ] ] ] ] } },
{ "type": "Feature", "properties": { "NO.SHP": "SHP 943" }, "geometry": { "type": "MultiPolygon", "coordinates": [ [ [ [ 115.1659908, -8.7971485 ], [ 115.1658015, -8.7975083 ], [ 115.1658702, -8.7975258 ], [ 115.1658298, -8.7976148 ], [ 115.1659167, -8.7976132 ], [ 115.1658966, -8.7976517 ], [ 115.1658003, -8.7977239 ], [ 115.1659413, -8.7977992 ], [ 115.1663333, -8.7973034 ], [ 115.1659908, -8.7971485 ] ] ], [ [ [ 115.1666525, -8.7974411 ], [ 115.1663333, -8.7973034 ], [ 115.1659413, -8.7977992 ], [ 115.1659596, -8.7978089 ], [ 115.1663701, -8.7979553 ], [ 115.1664305, -8.7978586 ], [ 115.1666525, -8.7974411 ] ] ] ] } },
{ "type": "Feature", "properties": { "NO.SHP": "SHP 18" }, "geometry": { "type": "Polygon", "coordinates": [ [ [ 115.1657909, -8.7970693 ], [ 115.1655848, -8.7969825 ], [ 115.1654738, -8.7969323 ], [ 115.1652857, -8.7968639 ], [ 115.1651346, -8.7967956 ], [ 115.1650589, -8.7967631 ], [ 115.1649699, -8.7967357 ], [ 115.1648434, -8.7967129 ], [ 115.1647736, -8.7967033 ], [ 115.1645625, -8.7966935 ], [ 115.1644651, -8.7967037 ], [ 115.1644074, -8.7967016 ], [ 115.1642282, -8.7966771 ], [ 115.1640164, -8.7965873 ], [ 115.1638125, -8.7965158 ], [ 115.1637956, -8.7965942 ], [ 115.1637661, -8.7967217 ], [ 115.1637361, -8.7968373 ], [ 115.1637059, -8.7970231 ], [ 115.1636008, -8.7973938 ], [ 115.1635169, -8.797709 ], [ 115.1638157, -8.7977401 ], [ 115.16427, -8.7978649 ], [ 115.164571, -8.7979849 ], [ 115.1645806, -8.7979506 ], [ 115.1648145, -8.7970931 ], [ 115.165399, -8.7972363 ], [ 115.1653258, -8.797367 ], [ 115.1655427, -8.7974189 ], [ 115.1658015, -8.7975083 ], [ 115.1659908, -8.7971485 ], [ 115.1657909, -8.7970693 ] ] ] } },
{ "type": "Feature", "properties": { "NO.SHP": "SHP 20" }, "geometry": { "type": "Polygon", "coordinates": [ [ [ 115.1794898, -8.7972066 ], [ 115.1794143, -8.7976719 ], [ 115.1799745, -8.7978317 ], [ 115.1805739, -8.798029 ], [ 115.1808066, -8.7981248 ], [ 115.1810547, -8.7977245 ], [ 115.1808529, -8.7976078 ], [ 115.1806538, -8.7975167 ], [ 115.1804287, -8.7974486 ], [ 115.1802011, -8.7973803 ], [ 115.1798249, -8.7973085 ], [ 115.1794898, -8.7972066 ] ] ] } },
{ "type": "Feature", "properties": { "NO.SHP": "SHP 142" }, "geometry": { "type": "Polygon", "coordinates": [ [ [ 115.1820972, -8.7912211 ], [ 115.1816776, -8.7909896 ], [ 115.1818331, -8.7903963 ], [ 115.1819793, -8.7899037 ], [ 115.1820801, -8.7895693 ], [ 115.1818003, -8.7894861 ], [ 115.1816599, -8.7899894 ], [ 115.1815897, -8.790269 ], [ 115.1814949, -8.7905937 ], [ 115.1813933, -8.790955 ], [ 115.1813442, -8.7913009 ], [ 115.1813853, -8.7915907 ], [ 115.1813946, -8.7919859 ], [ 115.1813914, -8.7920753 ], [ 115.1819389, -8.7921341 ], [ 115.1820265, -8.7917038 ], [ 115.1819601, -8.7916858 ], [ 115.1820029, -8.791573 ], [ 115.1820972, -8.7912211 ] ] ] } },
{ "type": "Feature", "properties": { "NO.SHP": "SHP 35" }, "geometry": { "type": "Polygon", "coordinates": [ [ [ 115.1762681, -8.8002931 ], [ 115.1762301, -8.7995718 ], [ 115.1765478, -8.7987836 ], [ 115.1754316, -8.7984936 ], [ 115.1755928, -8.7987664 ], [ 115.1757047, -8.7990799 ], [ 115.1756409, -8.7994973 ], [ 115.1756247, -8.7995718 ], [ 115.1755964, -8.7996927 ], [ 115.1755487, -8.799878 ], [ 115.1754115, -8.8005466 ], [ 115.1756807, -8.8006121 ], [ 115.1760589, -8.8007283 ], [ 115.1762703, -8.8008043 ], [ 115.1768611, -8.801008 ], [ 115.1774766, -8.8012637 ], [ 115.1776432, -8.8010867 ], [ 115.177793, -8.8008696 ], [ 115.1762681, -8.8002931 ] ] ] } },
{ "type": "Feature", "properties": { "NO.SHP": "SHP 88" }, "geometry": { "type": "Polygon", "coordinates": [ [ [ 115.1771777, -8.7909671 ], [ 115.1770989, -8.7911043 ], [ 115.1770965, -8.7911085 ], [ 115.1770422, -8.791327 ], [ 115.1769854, -8.791535 ], [ 115.1769315, -8.7917128 ], [ 115.1768164, -8.7919629 ], [ 115.1765742, -8.7920794 ], [ 115.1764221, -8.7922516 ], [ 115.1763116, -8.7924886 ], [ 115.1759544, -8.7927435 ], [ 115.1758289, -8.7929588 ], [ 115.1757292, -8.7931899 ], [ 115.1756597, -8.7932948 ], [ 115.1755992, -8.7935266 ], [ 115.1754276, -8.7937673 ], [ 115.1752233, -8.7940739 ], [ 115.1748548, -8.7947597 ], [ 115.174328, -8.7953857 ], [ 115.1742317, -8.7957569 ], [ 115.1739499, -8.7960425 ], [ 115.1737538, -8.7962851 ], [ 115.1736792, -8.7963375 ], [ 115.1734988, -8.796375 ], [ 115.1732829, -8.7963907 ], [ 115.1731242, -8.7964879 ], [ 115.172989, -8.7966244 ], [ 115.1728176, -8.7967846 ], [ 115.1726734, -8.796944 ], [ 115.1726061, -8.7971562 ], [ 115.172567, -8.7973201 ], [ 115.1725169, -8.7974932 ], [ 115.1724663, -8.79769 ], [ 115.1726653, -8.7975856 ], [ 115.1727898, -8.7974676 ], [ 115.1729288, -8.7973771 ], [ 115.1729879, -8.7973732 ], [ 115.1730275, -8.7973551 ], [ 115.173514, -8.7974566 ], [ 115.1736076, -8.7974606 ], [ 115.1737446, -8.7974885 ], [ 115.1739082, -8.7975035 ], [ 115.1740968, -8.7975242 ], [ 115.1743151, -8.7975375 ], [ 115.1745627, -8.7975095 ], [ 115.1747277, -8.7974553 ], [ 115.1748448, -8.7973992 ], [ 115.174967, -8.7973478 ], [ 115.175053, -8.7972786 ], [ 115.1750679, -8.7972166 ], [ 115.1750923, -8.7970763 ], [ 115.1751183, -8.7969678 ], [ 115.1751469, -8.7968799 ], [ 115.1751909, -8.796732 ], [ 115.175257, -8.7965375 ], [ 115.1753183, -8.7963722 ], [ 115.1753664, -8.7962023 ], [ 115.1754105, -8.7960574 ], [ 115.1754624, -8.7959014 ], [ 115.1755116, -8.7957569 ], [ 115.1755667, -8.7956224 ], [ 115.1756193, -8.7955325 ], [ 115.1756906, -8.7953511 ], [ 115.1757279, -8.7952615 ], [ 115.1758079, -8.7950767 ], [ 115.1758854, -8.794901 ], [ 115.1760088, -8.7946534 ], [ 115.1760559, -8.794568 ], [ 115.1760982, -8.7944788 ], [ 115.1761525, -8.7943704 ], [ 115.1762146, -8.7942704 ], [ 115.1762711, -8.7941757 ], [ 115.1763098, -8.7941065 ], [ 115.176351, -8.7940477 ], [ 115.1764327, -8.7938774 ], [ 115.176516, -8.7937497 ], [ 115.1765729, -8.79365 ], [ 115.1766306, -8.7935233 ], [ 115.1766791, -8.7934228 ], [ 115.1767142, -8.793338 ], [ 115.1767844, -8.793187 ], [ 115.1768035, -8.7931093 ], [ 115.1768477, -8.793005 ], [ 115.1768981, -8.7928844 ], [ 115.1769216, -8.7928138 ], [ 115.1769704, -8.7926913 ], [ 115.17702, -8.7925977 ], [ 115.1770638, -8.7925103 ], [ 115.1771274, -8.7924299 ], [ 115.1772036, -8.7923184 ], [ 115.1772694, -8.7922516 ], [ 115.1773313, -8.7920997 ], [ 115.1773809, -8.7919674 ], [ 115.1774309, -8.7917587 ], [ 115.1774648, -8.7913855 ], [ 115.1774661, -8.7913371 ], [ 115.1774652, -8.7910896 ], [ 115.1774675, -8.7910715 ], [ 115.1774591, -8.7909421 ], [ 115.1774459, -8.7907175 ], [ 115.1772723, -8.7907185 ], [ 115.1772608, -8.7908054 ], [ 115.1771777, -8.7909671 ] ] ] } },
{ "type": "Feature", "properties": { "NO.SHP": "SHP 77" }, "geometry": { "type": "Polygon", "coordinates": [ [ [ 115.1660335, -8.798722 ], [ 115.1660953, -8.7988445 ], [ 115.1662351, -8.7991158 ], [ 115.1665331, -8.7995324 ], [ 115.1665706, -8.7996671 ], [ 115.1708411, -8.8000326 ], [ 115.1709459, -8.7987481 ], [ 115.1710252, -8.7976173 ], [ 115.1710931, -8.7971209 ], [ 115.1711035, -8.7970084 ], [ 115.17114, -8.7966329 ], [ 115.1711865, -8.7964262 ], [ 115.1712888, -8.7960944 ], [ 115.1714517, -8.7956554 ], [ 115.1715973, -8.7951957 ], [ 115.171832, -8.7947442 ], [ 115.1720393, -8.7941047 ], [ 115.1720801, -8.7939422 ], [ 115.1721587, -8.7937371 ], [ 115.1724429, -8.7929776 ], [ 115.1723712, -8.792934 ], [ 115.1721193, -8.7928473 ], [ 115.1714494, -8.7926272 ], [ 115.1712636, -8.7927205 ], [ 115.1712058, -8.7928762 ], [ 115.171081, -8.7930157 ], [ 115.1709412, -8.793031 ], [ 115.1708945, -8.7929587 ], [ 115.1709162, -8.7928329 ], [ 115.1709923, -8.7926425 ], [ 115.1710494, -8.7925299 ], [ 115.1712135, -8.7925093 ], [ 115.171354, -8.7925197 ], [ 115.1714494, -8.7926272 ], [ 115.1714177, -8.7924659 ], [ 115.171472, -8.7924343 ], [ 115.1716444, -8.7923921 ], [ 115.1718833, -8.792263 ], [ 115.172073, -8.7921958 ], [ 115.17226, -8.792213 ], [ 115.1724731, -8.792289 ], [ 115.1726255, -8.792386 ], [ 115.173064, -8.7911684 ], [ 115.1730775, -8.7910226 ], [ 115.1731375, -8.7908619 ], [ 115.1732051, -8.7905485 ], [ 115.1733413, -8.7902608 ], [ 115.173413, -8.7900275 ], [ 115.173483, -8.7898869 ], [ 115.1735719, -8.7896642 ], [ 115.1736788, -8.7894681 ], [ 115.1738283, -8.7891672 ], [ 115.1738203, -8.7891154 ], [ 115.1737154, -8.7891377 ], [ 115.1736064, -8.7891606 ], [ 115.1729908, -8.7893324 ], [ 115.1724221, -8.7895598 ], [ 115.1724212, -8.7895518 ], [ 115.1723681, -8.7895956 ], [ 115.1723495, -8.7896579 ], [ 115.1723203, -8.7898342 ], [ 115.1723005, -8.7899802 ], [ 115.1722256, -8.7903689 ], [ 115.1721661, -8.7905653 ], [ 115.1721358, -8.7907484 ], [ 115.1720701, -8.7909364 ], [ 115.1719595, -8.7911736 ], [ 115.1716547, -8.7916718 ], [ 115.1715386, -8.791646 ], [ 115.1713928, -8.7916542 ], [ 115.1713035, -8.7917163 ], [ 115.1712809, -8.7920139 ], [ 115.1712062, -8.7920635 ], [ 115.1709847, -8.7921729 ], [ 115.1708815, -8.7922465 ], [ 115.1704891, -8.7923191 ], [ 115.170308, -8.7923228 ], [ 115.1702086, -8.7923636 ], [ 115.1699565, -8.7923788 ], [ 115.1695802, -8.7925552 ], [ 115.1693323, -8.7923534 ], [ 115.1691512, -8.7923304 ], [ 115.1689058, -8.792343 ], [ 115.1687106, -8.7925072 ], [ 115.1685976, -8.7926855 ], [ 115.1685216, -8.7927952 ], [ 115.1684998, -8.7928571 ], [ 115.1685576, -8.7929088 ], [ 115.1687276, -8.7933623 ], [ 115.1688069, -8.7936158 ], [ 115.1688091, -8.7937681 ], [ 115.1688644, -8.7941037 ], [ 115.1688776, -8.7942523 ], [ 115.1688964, -8.7943816 ], [ 115.1688726, -8.794568 ], [ 115.1689049, -8.7947052 ], [ 115.1689665, -8.7949475 ], [ 115.1690505, -8.7951438 ], [ 115.1690143, -8.795361 ], [ 115.168982, -8.7954667 ], [ 115.1689099, -8.7955848 ], [ 115.168883, -8.7955983 ], [ 115.1687162, -8.795698 ], [ 115.1685594, -8.795933 ], [ 115.1683679, -8.7961264 ], [ 115.1681829, -8.7962852 ], [ 115.1680632, -8.7963285 ], [ 115.1679422, -8.7964548 ], [ 115.1678298, -8.7966267 ], [ 115.1676844, -8.7968083 ], [ 115.1676044, -8.797012 ], [ 115.1675013, -8.7971527 ], [ 115.1674614, -8.7973409 ], [ 115.1673817, -8.7975062 ], [ 115.1673607, -8.7978015 ], [ 115.1672201, -8.7980347 ], [ 115.167125, -8.7980899 ], [ 115.1667474, -8.7982118 ], [ 115.1665964, -8.7982459 ], [ 115.16627, -8.7982866 ], [ 115.1661441, -8.7984317 ], [ 115.1660683, -8.7985558 ], [ 115.1660335, -8.798722 ] ] ] } },
{ "type": "Feature", "properties": { "NO.SHP": "SHP 86" }, "geometry": { "type": "Polygon", "coordinates": [ [ [ 115.1709835, -8.7897041 ], [ 115.1706139, -8.7902144 ], [ 115.1705553, -8.7902921 ], [ 115.1703639, -8.7904152 ], [ 115.1701888, -8.7905014 ], [ 115.1701082, -8.7905387 ], [ 115.1697516, -8.7907449 ], [ 115.1695709, -8.7909089 ], [ 115.1694636, -8.7911124 ], [ 115.1694356, -8.791276 ], [ 115.169428, -8.7912881 ], [ 115.1693495, -8.7915111 ], [ 115.1692738, -8.7917023 ], [ 115.1691687, -8.7918653 ], [ 115.1690719, -8.7919395 ], [ 115.1689507, -8.7919987 ], [ 115.1687994, -8.7920359 ], [ 115.1686337, -8.7920207 ], [ 115.168472, -8.7920314 ], [ 115.1683532, -8.7920652 ], [ 115.1682023, -8.7922367 ], [ 115.1681512, -8.7923024 ], [ 115.1680356, -8.7925091 ], [ 115.1680152, -8.7925904 ], [ 115.1678644, -8.7926916 ], [ 115.1675544, -8.7927078 ], [ 115.1673968, -8.7926742 ], [ 115.167296, -8.7926521 ], [ 115.1672867, -8.7926832 ], [ 115.1672674, -8.7928221 ], [ 115.1673635, -8.7928949 ], [ 115.1676357, -8.7929391 ], [ 115.1680282, -8.7929688 ], [ 115.1682474, -8.792893 ], [ 115.1684046, -8.7928435 ], [ 115.1685147, -8.792713 ], [ 115.1686045, -8.7925422 ], [ 115.1687318, -8.7923829 ], [ 115.1688668, -8.7922787 ], [ 115.1689665, -8.7922431 ], [ 115.1691798, -8.7922307 ], [ 115.1693975, -8.7923083 ], [ 115.1696134, -8.7924752 ], [ 115.1697838, -8.7924397 ], [ 115.1698337, -8.7923867 ], [ 115.1699867, -8.7923305 ], [ 115.1702354, -8.792283 ], [ 115.1705106, -8.7922955 ], [ 115.1707361, -8.7922203 ], [ 115.1709222, -8.7921543 ], [ 115.1711188, -8.7920445 ], [ 115.1712707, -8.7919306 ], [ 115.1712896, -8.7917278 ], [ 115.171328, -8.7915907 ], [ 115.171423, -8.7916058 ], [ 115.1716478, -8.7916073 ], [ 115.1718302, -8.7913044 ], [ 115.1719697, -8.7910487 ], [ 115.1720319, -8.7908626 ], [ 115.1721479, -8.7904449 ], [ 115.1721654, -8.790325 ], [ 115.1721848, -8.7901862 ], [ 115.1722309, -8.7899666 ], [ 115.1722561, -8.7897644 ], [ 115.1722544, -8.7897131 ], [ 115.1720101, -8.789653 ], [ 115.1716457, -8.7895636 ], [ 115.1714661, -8.7895071 ], [ 115.1712216, -8.7895278 ], [ 115.1709835, -8.7897041 ] ] ] } },
{ "type": "Feature", "properties": { "NO.SHP": "SHP 33" }, "geometry": { "type": "Polygon", "coordinates": [ [ [ 115.1681044, -8.7923045 ], [ 115.168179, -8.7921931 ], [ 115.1682136, -8.7921587 ], [ 115.1682517, -8.792111 ], [ 115.1683051, -8.7920552 ], [ 115.1683476, -8.7920391 ], [ 115.1684711, -8.7919897 ], [ 115.1686421, -8.7919903 ], [ 115.1688627, -8.7919602 ], [ 115.1689764, -8.7919291 ], [ 115.1690827, -8.7918837 ], [ 115.1691648, -8.7917954 ], [ 115.169242, -8.791673 ], [ 115.1692863, -8.7915596 ], [ 115.169338, -8.7914445 ], [ 115.1693563, -8.7913255 ], [ 115.1693732, -8.7912383 ], [ 115.1694065, -8.7911567 ], [ 115.1694114, -8.7910956 ], [ 115.1694119, -8.7910461 ], [ 115.1694236, -8.7909641 ], [ 115.1695047, -8.7908604 ], [ 115.1696944, -8.7906861 ], [ 115.1697579, -8.7906599 ], [ 115.1697985, -8.7906381 ], [ 115.1698727, -8.7906002 ], [ 115.1699669, -8.7905545 ], [ 115.1699945, -8.7905346 ], [ 115.1700151, -8.7905206 ], [ 115.1700946, -8.7904607 ], [ 115.1701691, -8.7904196 ], [ 115.1703059, -8.7903299 ], [ 115.1704239, -8.7903056 ], [ 115.1705071, -8.7902749 ], [ 115.1705556, -8.7902026 ], [ 115.1706087, -8.7901148 ], [ 115.1706807, -8.7900319 ], [ 115.1707252, -8.7899337 ], [ 115.1708338, -8.7897679 ], [ 115.1709488, -8.789645 ], [ 115.1710647, -8.7895653 ], [ 115.1710658, -8.7895527 ], [ 115.1711355, -8.7894951 ], [ 115.1712384, -8.7894598 ], [ 115.1712981, -8.7894397 ], [ 115.1715521, -8.7894727 ], [ 115.171654, -8.7895172 ], [ 115.1717921, -8.7895523 ], [ 115.1720064, -8.7895976 ], [ 115.1721255, -8.7895957 ], [ 115.1721751, -8.7895811 ], [ 115.1721806, -8.789556 ], [ 115.1721053, -8.7895363 ], [ 115.1720517, -8.789525 ], [ 115.1720031, -8.789495 ], [ 115.1719478, -8.7894675 ], [ 115.1719085, -8.7894415 ], [ 115.171804, -8.7893903 ], [ 115.1717212, -8.7893476 ], [ 115.1716152, -8.7892771 ], [ 115.1715875, -8.7892649 ], [ 115.1715325, -8.7892343 ], [ 115.1714355, -8.7891711 ], [ 115.1713455, -8.7891021 ], [ 115.1712865, -8.7890455 ], [ 115.1712533, -8.7889881 ], [ 115.1712194, -8.788937 ], [ 115.1711842, -8.7888667 ], [ 115.1711619, -8.7888294 ], [ 115.1711519, -8.7887997 ], [ 115.1711667, -8.7887436 ], [ 115.1712262, -8.7886563 ], [ 115.1712596, -8.7886083 ], [ 115.1712408, -8.7886033 ], [ 115.1711759, -8.788575 ], [ 115.17107, -8.7885397 ], [ 115.1710265, -8.7885581 ], [ 115.1709975, -8.7885938 ], [ 115.1709521, -8.7887015 ], [ 115.1709042, -8.7888026 ], [ 115.1707967, -8.7889909 ], [ 115.1707107, -8.7891556 ], [ 115.1706741, -8.7892385 ], [ 115.1706299, -8.7892984 ], [ 115.1705899, -8.7893139 ], [ 115.1704778, -8.78931 ], [ 115.1703435, -8.7892689 ], [ 115.170276, -8.7892691 ], [ 115.1702437, -8.7893045 ], [ 115.1702048, -8.7893776 ], [ 115.1701513, -8.7895037 ], [ 115.1701188, -8.7895775 ], [ 115.1700798, -8.7896858 ], [ 115.1700417, -8.7897846 ], [ 115.1699949, -8.789873 ], [ 115.1699542, -8.7899651 ], [ 115.1699004, -8.7900944 ], [ 115.1698637, -8.7900751 ], [ 115.1697794, -8.7900482 ], [ 115.1694887, -8.7899607 ], [ 115.1692631, -8.7898632 ], [ 115.1690596, -8.789771 ], [ 115.1689303, -8.789676 ], [ 115.1687624, -8.7895807 ], [ 115.1686573, -8.7895358 ], [ 115.1685865, -8.789606 ], [ 115.1685641, -8.7896743 ], [ 115.1685358, -8.7897708 ], [ 115.1685047, -8.7898287 ], [ 115.1684067, -8.7898804 ], [ 115.1682834, -8.7898595 ], [ 115.1681324, -8.7898584 ], [ 115.1680878, -8.7898895 ], [ 115.1679974, -8.7898939 ], [ 115.167902, -8.7899171 ], [ 115.1678078, -8.7899628 ], [ 115.1677017, -8.790033 ], [ 115.1675479, -8.7901659 ], [ 115.1674313, -8.7902798 ], [ 115.1674034, -8.7903028 ], [ 115.1673124, -8.790384 ], [ 115.1671531, -8.7905068 ], [ 115.1670829, -8.7905707 ], [ 115.1669611, -8.7906714 ], [ 115.1668364, -8.7907686 ], [ 115.1667723, -8.790801 ], [ 115.1666401, -8.79084 ], [ 115.1665636, -8.7908682 ], [ 115.166486, -8.7908387 ], [ 115.1663844, -8.790791 ], [ 115.1662637, -8.7907415 ], [ 115.1661652, -8.7906941 ], [ 115.1660732, -8.7906473 ], [ 115.1659745, -8.790603 ], [ 115.1657429, -8.7904667 ], [ 115.1656844, -8.7904389 ], [ 115.1656183, -8.7904936 ], [ 115.1655736, -8.7905598 ], [ 115.1655778, -8.7906177 ], [ 115.1656244, -8.7906699 ], [ 115.1656799, -8.7907294 ], [ 115.1656831, -8.7907648 ], [ 115.1657302, -8.7908107 ], [ 115.1657591, -8.7908454 ], [ 115.1658752, -8.7909104 ], [ 115.166026, -8.7909818 ], [ 115.1660976, -8.7910075 ], [ 115.1663378, -8.7911191 ], [ 115.1664032, -8.7911763 ], [ 115.1663939, -8.7912074 ], [ 115.1663619, -8.7912748 ], [ 115.1663386, -8.7913877 ], [ 115.1664253, -8.7914916 ], [ 115.1665342, -8.7915655 ], [ 115.1666551, -8.791647 ], [ 115.1667193, -8.7917168 ], [ 115.1670255, -8.7919495 ], [ 115.1670694, -8.7920303 ], [ 115.1671728, -8.7922316 ], [ 115.1672503, -8.7923666 ], [ 115.1673271, -8.7925079 ], [ 115.1673878, -8.7926158 ], [ 115.1674689, -8.7926424 ], [ 115.1675517, -8.79265 ], [ 115.167714, -8.792633 ], [ 115.1678229, -8.7926366 ], [ 115.1679005, -8.792631 ], [ 115.1679342, -8.7926149 ], [ 115.1680056, -8.7925383 ], [ 115.1680643, -8.7923903 ], [ 115.1681044, -8.7923045 ] ] ] } },
{ "type": "Feature", "properties": { "NO.SHP": "SHP 21" }, "geometry": { "type": "Polygon", "coordinates": [ [ [ 115.1659553, -8.793706 ], [ 115.1661363, -8.7933838 ], [ 115.1664239, -8.7930203 ], [ 115.1666175, -8.7928047 ], [ 115.1668202, -8.7926635 ], [ 115.1667667, -8.7925819 ], [ 115.1665354, -8.7924775 ], [ 115.1663722, -8.7923314 ], [ 115.1663088, -8.7922872 ], [ 115.1660594, -8.7921013 ], [ 115.1659483, -8.7920175 ], [ 115.1658322, -8.7919525 ], [ 115.1657523, -8.7919132 ], [ 115.1656422, -8.7919223 ], [ 115.1655929, -8.7919689 ], [ 115.165485, -8.7920229 ], [ 115.165359, -8.7920305 ], [ 115.1653302, -8.7920982 ], [ 115.1653229, -8.7921423 ], [ 115.1653014, -8.792201 ], [ 115.1652497, -8.792273 ], [ 115.1652125, -8.7923271 ], [ 115.1651609, -8.7923991 ], [ 115.1651252, -8.7924373 ], [ 115.1650678, -8.7924672 ], [ 115.1649049, -8.7925258 ], [ 115.1648634, -8.7925571 ], [ 115.164825, -8.7926239 ], [ 115.1647553, -8.7927869 ], [ 115.1647117, -8.7928756 ], [ 115.1646499, -8.7929179 ], [ 115.1645569, -8.7929509 ], [ 115.1644704, -8.7930165 ], [ 115.1644458, -8.7930398 ], [ 115.164432, -8.7931184 ], [ 115.1644201, -8.7931781 ], [ 115.1643887, -8.793204 ], [ 115.164303, -8.7932281 ], [ 115.1642128, -8.7932645 ], [ 115.1641814, -8.7933256 ], [ 115.164124, -8.7933554 ], [ 115.1640851, -8.7933934 ], [ 115.1640653, -8.7934683 ], [ 115.1640624, -8.7935 ], [ 115.1640774, -8.7935462 ], [ 115.1642306, -8.7935922 ], [ 115.1643782, -8.7936282 ], [ 115.1644599, -8.7936485 ], [ 115.1646982, -8.7937119 ], [ 115.1649778, -8.7937121 ], [ 115.165371, -8.7937003 ], [ 115.1659553, -8.793706 ] ] ] } },
{ "type": "Feature", "properties": { "NO.SHP": "SHP 85" }, "geometry": { "type": "Polygon", "coordinates": [ [ [ 115.1714482, -8.7958061 ], [ 115.1712813, -8.7962192 ], [ 115.1712583, -8.7962938 ], [ 115.171211, -8.7964908 ], [ 115.1711571, -8.7967256 ], [ 115.171152, -8.7968498 ], [ 115.1711338, -8.7969936 ], [ 115.171125, -8.7972613 ], [ 115.1712229, -8.7972799 ], [ 115.1713558, -8.7973017 ], [ 115.1714355, -8.7972914 ], [ 115.1715494, -8.7973115 ], [ 115.1715567, -8.7972322 ], [ 115.1715664, -8.7971628 ], [ 115.1715805, -8.7970458 ], [ 115.1716265, -8.7968966 ], [ 115.1717301, -8.7965417 ], [ 115.1717906, -8.7963747 ], [ 115.171814, -8.7962617 ], [ 115.1718924, -8.7961091 ], [ 115.1719502, -8.7960409 ], [ 115.1714482, -8.7958061 ] ] ] } },
{ "type": "Feature", "properties": { "NO.SHP": "SHP 132" }, "geometry": { "type": "Polygon", "coordinates": [ [ [ 115.1712341, -8.7974412 ], [ 115.1711914, -8.7974703 ], [ 115.171158, -8.7974995 ], [ 115.1711278, -8.7975306 ], [ 115.1711128, -8.7976004 ], [ 115.1710847, -8.7978657 ], [ 115.1710748, -8.797936 ], [ 115.1710371, -8.7982762 ], [ 115.1710313, -8.7985122 ], [ 115.1710186, -8.7988914 ], [ 115.1709987, -8.7991741 ], [ 115.170987, -8.7994735 ], [ 115.1709862, -8.7996205 ], [ 115.1709927, -8.799896 ], [ 115.1710122, -8.800032 ], [ 115.1710359, -8.8000886 ], [ 115.1710924, -8.8001033 ], [ 115.1711662, -8.8001037 ], [ 115.1713357, -8.8001129 ], [ 115.1715147, -8.800123 ], [ 115.1716561, -8.8001232 ], [ 115.1718041, -8.8001208 ], [ 115.1719618, -8.8001193 ], [ 115.1721318, -8.8001222 ], [ 115.172239, -8.8001096 ], [ 115.1723471, -8.8000876 ], [ 115.1724801, -8.8000743 ], [ 115.172625, -8.8000716 ], [ 115.1727371, -8.8000755 ], [ 115.1728414, -8.8000595 ], [ 115.1729297, -8.8000338 ], [ 115.172943, -8.7999898 ], [ 115.172968, -8.7999137 ], [ 115.17301, -8.7997935 ], [ 115.1730378, -8.7997147 ], [ 115.1730513, -8.7996724 ], [ 115.1730663, -8.7996103 ], [ 115.1730806, -8.7995605 ], [ 115.1730975, -8.7995172 ], [ 115.1731103, -8.7994833 ], [ 115.173175, -8.7992015 ], [ 115.1732108, -8.7990929 ], [ 115.173239, -8.7990316 ], [ 115.1732756, -8.7989486 ], [ 115.1733312, -8.7988003 ], [ 115.1733927, -8.7986909 ], [ 115.173425, -8.7986203 ], [ 115.1734406, -8.7984523 ], [ 115.1734709, -8.7983336 ], [ 115.1734901, -8.7982651 ], [ 115.1735123, -8.7982 ], [ 115.1735674, -8.7981251 ], [ 115.1735376, -8.7981 ], [ 115.1735417, -8.7980908 ], [ 115.1735501, -8.7980692 ], [ 115.173569, -8.798039 ], [ 115.173626, -8.798001 ], [ 115.1736898, -8.7979204 ], [ 115.1737863, -8.7977614 ], [ 115.1738708, -8.797659 ], [ 115.174317, -8.7977729 ], [ 115.1743366, -8.7976171 ], [ 115.1737221, -8.797532 ], [ 115.1735739, -8.7975024 ], [ 115.1734878, -8.7974945 ], [ 115.1733633, -8.7974862 ], [ 115.1732361, -8.7974713 ], [ 115.1730631, -8.797465 ], [ 115.17296, -8.7974683 ], [ 115.1728724, -8.7975114 ], [ 115.1728237, -8.7975517 ], [ 115.1727645, -8.7976006 ], [ 115.1727097, -8.7976723 ], [ 115.1725247, -8.7977959 ], [ 115.1724786, -8.7978077 ], [ 115.172325, -8.7978 ], [ 115.1722025, -8.7977695 ], [ 115.1720318, -8.7976707 ], [ 115.1719209, -8.797619 ], [ 115.1718201, -8.7975617 ], [ 115.1716681, -8.797503 ], [ 115.17152, -8.7974361 ], [ 115.1714282, -8.7974336 ], [ 115.1712341, -8.7974412 ] ] ] } },
{ "type": "Feature", "properties": { "NO.SHP": "SHP 78" }, "geometry": { "type": "MultiPolygon", "coordinates": [ [ [ [ 115.1722538, -8.7936201 ], [ 115.1719535, -8.7944317 ], [ 115.1721527, -8.7945011 ], [ 115.1722862, -8.7945518 ], [ 115.1724014, -8.7945911 ], [ 115.1726217, -8.7946753 ], [ 115.1728771, -8.7947627 ], [ 115.1729564, -8.7948084 ], [ 115.1731073, -8.7948798 ], [ 115.1734823, -8.7949942 ], [ 115.1735837, -8.7950099 ], [ 115.1737235, -8.7950611 ], [ 115.1738503, -8.7951143 ], [ 115.1739114, -8.7951487 ], [ 115.1740156, -8.795203 ], [ 115.17411, -8.7952596 ], [ 115.1741432, -8.795317 ], [ 115.17414, -8.7954894 ], [ 115.1741248, -8.795619 ], [ 115.1741369, -8.7956617 ], [ 115.1741869, -8.7957462 ], [ 115.1742352, -8.7956068 ], [ 115.1742454, -8.795531 ], [ 115.1742699, -8.7954406 ], [ 115.1743077, -8.7953449 ], [ 115.1745575, -8.7951122 ], [ 115.1747064, -8.7949277 ], [ 115.174968, -8.7945329 ], [ 115.1750621, -8.7943498 ], [ 115.1751624, -8.7941352 ], [ 115.1752963, -8.7939046 ], [ 115.1754548, -8.793721 ], [ 115.1755951, -8.7934558 ], [ 115.1756504, -8.7932754 ], [ 115.1758837, -8.7928046 ], [ 115.1759256, -8.7927349 ], [ 115.175784, -8.7926675 ], [ 115.1757562, -8.7926202 ], [ 115.1757805, -8.7924978 ], [ 115.1758424, -8.7923501 ], [ 115.175862, -8.7922432 ], [ 115.1758253, -8.7921886 ], [ 115.1756275, -8.7921385 ], [ 115.1753309, -8.7920793 ], [ 115.1751073, -8.79203 ], [ 115.1748278, -8.7919595 ], [ 115.1745866, -8.7918926 ], [ 115.174443, -8.7918474 ], [ 115.1743776, -8.7918254 ], [ 115.1744127, -8.7917583 ], [ 115.1744601, -8.7916636 ], [ 115.1744738, -8.7916201 ], [ 115.1745429, -8.7914634 ], [ 115.1745722, -8.7914053 ], [ 115.1746207, -8.7913211 ], [ 115.1746587, -8.7912551 ], [ 115.1748337, -8.7908588 ], [ 115.1748739, -8.7906675 ], [ 115.1749051, -8.7905393 ], [ 115.1749932, -8.7903172 ], [ 115.1750197, -8.7902397 ], [ 115.1750677, -8.7901387 ], [ 115.17515, -8.7899621 ], [ 115.1753067, -8.7895378 ], [ 115.1754192, -8.7892411 ], [ 115.175719, -8.7892958 ], [ 115.1759245, -8.7893124 ], [ 115.1762446, -8.789369 ], [ 115.176871, -8.7894583 ], [ 115.1769214, -8.7890872 ], [ 115.176968, -8.7887566 ], [ 115.176901, -8.7885716 ], [ 115.175929, -8.7886022 ], [ 115.1759515, -8.7890954 ], [ 115.1747481, -8.7890486 ], [ 115.1742169, -8.789036 ], [ 115.1739453, -8.7890698 ], [ 115.1733757, -8.7902509 ], [ 115.1733234, -8.7903907 ], [ 115.1732657, -8.7905452 ], [ 115.1731992, -8.7907421 ], [ 115.1728302, -8.7919469 ], [ 115.1727225, -8.7922759 ], [ 115.1724946, -8.7929997 ], [ 115.1722538, -8.7936201 ] ] ], [ [ [ 115.1753409, -8.7904147 ], [ 115.17515, -8.7899621 ], [ 115.1750677, -8.7901387 ], [ 115.1750197, -8.7902397 ], [ 115.1749932, -8.7903172 ], [ 115.1749051, -8.7905393 ], [ 115.1748739, -8.7906675 ], [ 115.1748337, -8.7908588 ], [ 115.1746587, -8.7912551 ], [ 115.1746207, -8.7913211 ], [ 115.1747285, -8.791196 ], [ 115.1747997, -8.7911897 ], [ 115.1749231, -8.7912107 ], [ 115.1750859, -8.7912576 ], [ 115.1752272, -8.7912929 ], [ 115.1753986, -8.7913503 ], [ 115.1754979, -8.7913882 ], [ 115.1755816, -8.7914214 ], [ 115.1756537, -8.7914408 ], [ 115.1757317, -8.7913969 ], [ 115.1757779, -8.7913148 ], [ 115.1758229, -8.7912454 ], [ 115.175851, -8.7912192 ], [ 115.1758531, -8.7911619 ], [ 115.1756772, -8.7910146 ], [ 115.1755438, -8.7908937 ], [ 115.1753971, -8.7907779 ], [ 115.1752582, -8.790682 ], [ 115.1750718, -8.7906137 ], [ 115.1750225, -8.79059 ], [ 115.1753409, -8.7904147 ] ] ] ] } },
{ "type": "Feature", "properties": { "NO.SHP": "SHP 17" }, "geometry": { "type": "Polygon", "coordinates": [ [ [ 115.176217, -8.7995606 ], [ 115.1762681, -8.8002931 ], [ 115.1763944, -8.8003457 ], [ 115.1772549, -8.8006646 ], [ 115.1772727, -8.8005767 ], [ 115.1772928, -8.8004987 ], [ 115.1773028, -8.800426 ], [ 115.177341, -8.8002921 ], [ 115.1772889, -8.8002298 ], [ 115.177209, -8.8001905 ], [ 115.1771071, -8.8001459 ], [ 115.176938, -8.8000633 ], [ 115.1768654, -8.800015 ], [ 115.176826, -8.799989 ], [ 115.1767994, -8.7999642 ], [ 115.1768308, -8.799868 ], [ 115.1768443, -8.7997925 ], [ 115.1768041, -8.7997409 ], [ 115.1765252, -8.7996641 ], [ 115.176217, -8.7995606 ] ] ] } },
{ "type": "Feature", "properties": { "NO.SHP": "SHP 84" }, "geometry": { "type": "Polygon", "coordinates": [ [ [ 115.1773949, -8.7984829 ], [ 115.1773555, -8.7985784 ], [ 115.1773072, -8.7988041 ], [ 115.1773072, -8.7988569 ], [ 115.1773321, -8.7989167 ], [ 115.1773793, -8.798945 ], [ 115.1774207, -8.7989664 ], [ 115.1774711, -8.7989774 ], [ 115.1775065, -8.7989599 ], [ 115.1775497, -8.7989271 ], [ 115.177588, -8.7988955 ], [ 115.1776272, -8.7988879 ], [ 115.1776642, -8.7989057 ], [ 115.1776866, -8.7989237 ], [ 115.1777151, -8.7989455 ], [ 115.1777961, -8.7990073 ], [ 115.1778234, -8.7990418 ], [ 115.177834, -8.7990843 ], [ 115.1778377, -8.7991134 ], [ 115.1778839, -8.7991352 ], [ 115.1779539, -8.7991593 ], [ 115.1780116, -8.7991789 ], [ 115.1780602, -8.7991914 ], [ 115.1781168, -8.7992046 ], [ 115.1781586, -8.7991349 ], [ 115.1782171, -8.7989901 ], [ 115.178234, -8.7989468 ], [ 115.1782473, -8.7988378 ], [ 115.1782438, -8.7987895 ], [ 115.1782242, -8.7987573 ], [ 115.1781661, -8.7987088 ], [ 115.1776687, -8.7985113 ], [ 115.1775595, -8.7984757 ], [ 115.1775059, -8.7984644 ], [ 115.1774948, -8.7984633 ], [ 115.1773949, -8.7984829 ] ] ] } },
{ "type": "Feature", "properties": { "NO.SHP": "SHP 34" }, "geometry": { "type": "Polygon", "coordinates": [ [ [ 115.1744753, -8.800241 ], [ 115.1746692, -8.8003087 ], [ 115.1748625, -8.8003581 ], [ 115.1751499, -8.8004479 ], [ 115.1753975, -8.8005499 ], [ 115.1755231, -8.7999857 ], [ 115.1756191, -8.7995813 ], [ 115.1750194, -8.7994437 ], [ 115.1748885, -8.7999733 ], [ 115.1746628, -8.7999119 ], [ 115.1745267, -8.8000958 ], [ 115.1745171, -8.8001073 ], [ 115.1744753, -8.800241 ] ] ] } },
{ "type": "Feature", "properties": { "NO.SHP": "-" }, "geometry": { "type": "Polygon", "coordinates": [ [ [ 115.1730497, -8.7996768 ], [ 115.1729298, -8.8000327 ], [ 115.1733141, -8.800116 ], [ 115.1734278, -8.7997547 ], [ 115.1730497, -8.7996768 ] ] ] } },
{ "type": "Feature", "properties": { "NO.SHP": "-" }, "geometry": null },
{ "type": "Feature", "properties": { "NO.SHP": "920" }, "geometry": { "type": "Polygon", "coordinates": [ [ [ 115.1622325, -8.7956115 ], [ 115.1623894, -8.7956859 ], [ 115.162483, -8.7955723 ], [ 115.1625916, -8.795456 ], [ 115.1627175, -8.7953868 ], [ 115.162929, -8.7951853 ], [ 115.1630794, -8.7950411 ], [ 115.1632174, -8.7949608 ], [ 115.163367, -8.7947982 ], [ 115.1634982, -8.7946594 ], [ 115.1635431, -8.7946409 ], [ 115.1636028, -8.7945129 ], [ 115.1636654, -8.7943285 ], [ 115.1637698, -8.7942091 ], [ 115.1640075, -8.7940748 ], [ 115.1639798, -8.7936627 ], [ 115.1639078, -8.7936787 ], [ 115.1637536, -8.7936736 ], [ 115.1631666, -8.7934046 ], [ 115.1626054, -8.7947674 ], [ 115.1622325, -8.7956115 ] ] ] } },
{ "type": "Feature", "properties": { "NO.SHP": "93" }, "geometry": { "type": "Polygon", "coordinates": [ [ [ 115.1626789, -8.7954825 ], [ 115.1640156, -8.7957989 ], [ 115.164128, -8.7953238 ], [ 115.1642032, -8.7949426 ], [ 115.1640678, -8.7949313 ], [ 115.1641754, -8.7943607 ], [ 115.1642332, -8.793996 ], [ 115.164288, -8.7936016 ], [ 115.1641554, -8.7935725 ], [ 115.164032, -8.7935781 ], [ 115.1639751, -8.7936645 ], [ 115.1640123, -8.7940719 ], [ 115.1637675, -8.7942089 ], [ 115.1636666, -8.7943275 ], [ 115.163622, -8.7944649 ], [ 115.1636, -8.7945432 ], [ 115.1635442, -8.794641 ], [ 115.1634973, -8.7946559 ], [ 115.1633672, -8.7947956 ], [ 115.1638558, -8.794948 ], [ 115.1637314, -8.795491 ], [ 115.1632565, -8.7953749 ], [ 115.1629146, -8.7952598 ], [ 115.1628629, -8.7953263 ], [ 115.1627795, -8.7954035 ], [ 115.1626789, -8.7954825 ] ] ] } },
{ "type": "Feature", "properties": { "NO.SHP": "92" }, "geometry": { "type": "Polygon", "coordinates": [ [ [ 115.164128, -8.7953238 ], [ 115.1639895, -8.7959085 ], [ 115.1641139, -8.795929 ], [ 115.1642033, -8.7959214 ], [ 115.1643159, -8.7958605 ], [ 115.1643924, -8.7958086 ], [ 115.1645688, -8.7957954 ], [ 115.1646473, -8.7957947 ], [ 115.1647129, -8.7954806 ], [ 115.164128, -8.7953238 ] ] ] } },
{ "type": "Feature", "properties": { "NO.SHP": "919" }, "geometry": { "type": "Polygon", "coordinates": [ [ [ 115.1751103, -8.7978621 ], [ 115.1751743, -8.7981531 ], [ 115.1754347, -8.7984848 ], [ 115.1761846, -8.7986895 ], [ 115.1763442, -8.7980977 ], [ 115.1763735, -8.798028 ], [ 115.1751103, -8.7978621 ] ] ] } },
{ "type": "Feature", "properties": { "NO.SHP": "16" }, "geometry": { "type": "Polygon", "coordinates": [ [ [ 115.1750136, -8.7974096 ], [ 115.1751134, -8.7978533 ], [ 115.1763702, -8.7980141 ], [ 115.1763999, -8.7976208 ], [ 115.1760901, -8.7975516 ], [ 115.1760955, -8.7974933 ], [ 115.1758382, -8.797447 ], [ 115.1758257, -8.7974096 ], [ 115.1757333, -8.7974011 ], [ 115.1757244, -8.7974229 ], [ 115.1755025, -8.7974116 ], [ 115.1752954, -8.797388 ], [ 115.1751823, -8.7973324 ], [ 115.1750136, -8.7974096 ] ] ] } },
{ "type": "Feature", "properties": { "NO.SHP": "131" }, "geometry": { "type": "Polygon", "coordinates": [ [ [ 115.1775744, -8.7908785 ], [ 115.1775628, -8.7909544 ], [ 115.1775726, -8.7910944 ], [ 115.177568, -8.791438 ], [ 115.1775397, -8.7918405 ], [ 115.177488, -8.7921277 ], [ 115.1772933, -8.792387 ], [ 115.1771564, -8.7926109 ], [ 115.1770456, -8.7929221 ], [ 115.1768547, -8.7933617 ], [ 115.1766868, -8.7937242 ], [ 115.1769205, -8.7937796 ], [ 115.1771693, -8.7938194 ], [ 115.1773977, -8.7933199 ], [ 115.1786812, -8.7938543 ], [ 115.1787156, -8.7938031 ], [ 115.1788383, -8.7934614 ], [ 115.1789509, -8.7931549 ], [ 115.1790841, -8.7928729 ], [ 115.178791, -8.7928437 ], [ 115.1788306, -8.7927116 ], [ 115.178938, -8.7924612 ], [ 115.1790532, -8.7923473 ], [ 115.1790678, -8.7922151 ], [ 115.1790867, -8.7916443 ], [ 115.1795493, -8.7915624 ], [ 115.1798559, -8.7915679 ], [ 115.1799278, -8.7913324 ], [ 115.180001, -8.7910585 ], [ 115.1799922, -8.7907612 ], [ 115.1798968, -8.7903677 ], [ 115.1797826, -8.7901038 ], [ 115.179521, -8.7900299 ], [ 115.1790331, -8.7898946 ], [ 115.1788365, -8.7898064 ], [ 115.178489, -8.7895798 ], [ 115.178103, -8.7893271 ], [ 115.1780324, -8.7893274 ], [ 115.1779426, -8.7894368 ], [ 115.1779042, -8.7898995 ], [ 115.1779313, -8.7902935 ], [ 115.1779178, -8.7909779 ], [ 115.1778263, -8.7909831 ], [ 115.1776193, -8.7908849 ], [ 115.1775744, -8.7908785 ] ] ] } },
{ "type": "Feature", "properties": { "NO.SHP": "87" }, "geometry": { "type": "Polygon", "coordinates": [ [ [ 115.1753029, -8.7968422 ], [ 115.1752817, -8.7968742 ], [ 115.1754818, -8.7969492 ], [ 115.1757247, -8.7970032 ], [ 115.1758129, -8.7967646 ], [ 115.1759467, -8.7963763 ], [ 115.1760763, -8.7964018 ], [ 115.1767359, -8.7965507 ], [ 115.177322, -8.7966091 ], [ 115.1774288, -8.7960961 ], [ 115.1775435, -8.7954979 ], [ 115.1776064, -8.7950896 ], [ 115.1773518, -8.7950639 ], [ 115.1769132, -8.7949602 ], [ 115.1764704, -8.7949512 ], [ 115.176344, -8.7952836 ], [ 115.1762923, -8.7952766 ], [ 115.1758809, -8.7951256 ], [ 115.1757212, -8.7956699 ], [ 115.1756131, -8.795927 ], [ 115.1754684, -8.79626 ], [ 115.1753029, -8.7968422 ] ] ] } },
{ "type": "Feature", "properties": { "NO.SHP": "127" }, "geometry": { "type": "Polygon", "coordinates": [ [ [ 115.1652104, -8.7993452 ], [ 115.1652776, -8.7994057 ], [ 115.1665221, -8.799674 ], [ 115.1665213, -8.7996332 ], [ 115.1662712, -8.7992888 ], [ 115.166058, -8.7989388 ], [ 115.1658709, -8.7987496 ], [ 115.1655921, -8.7989096 ], [ 115.1654479, -8.7990412 ], [ 115.1652104, -8.7993452 ] ] ] } },
{ "type": "Feature", "properties": { "NO.SHP": "941" }, "geometry": { "type": "Polygon", "coordinates": [ [ [ 115.1774663, -8.7908674 ], [ 115.1775772, -8.7908731 ], [ 115.1775284, -8.7906151 ], [ 115.1774169, -8.7902722 ], [ 115.1773605, -8.7899977 ], [ 115.1772557, -8.7897301 ], [ 115.1771827, -8.7893885 ], [ 115.1772209, -8.7891 ], [ 115.1772795, -8.7888859 ], [ 115.1773253, -8.7885642 ], [ 115.1773759, -8.7881412 ], [ 115.1774465, -8.7878218 ], [ 115.1775278, -8.787535 ], [ 115.1776781, -8.7872637 ], [ 115.1778025, -8.7870511 ], [ 115.1779335, -8.7867916 ], [ 115.1780806, -8.7864815 ], [ 115.1782423, -8.7861863 ], [ 115.1783899, -8.7859192 ], [ 115.1785056, -8.7856538 ], [ 115.1786138, -8.7853944 ], [ 115.1786385, -8.785227 ], [ 115.1785648, -8.7848445 ], [ 115.1784665, -8.7845798 ], [ 115.1784505, -8.7844832 ], [ 115.1785457, -8.7840462 ], [ 115.1786415, -8.7837495 ], [ 115.1787275, -8.7833862 ], [ 115.1788078, -8.7828889 ], [ 115.1788722, -8.7824898 ], [ 115.1789234, -8.7819876 ], [ 115.178991, -8.7817494 ], [ 115.1786304, -8.7816642 ], [ 115.178623, -8.7819645 ], [ 115.1786085, -8.7820469 ], [ 115.1786049, -8.782257 ], [ 115.1785747, -8.7824104 ], [ 115.1785172, -8.7828826 ], [ 115.1784637, -8.7828958 ], [ 115.1783941, -8.7829347 ], [ 115.1783842, -8.7829677 ], [ 115.178367, -8.7830544 ], [ 115.1782605, -8.7830989 ], [ 115.1781737, -8.7831271 ], [ 115.178141, -8.783235 ], [ 115.1781372, -8.7833003 ], [ 115.1781802, -8.7833518 ], [ 115.1782748, -8.7834103 ], [ 115.1783572, -8.783454 ], [ 115.1783024, -8.7837998 ], [ 115.1782613, -8.7839974 ], [ 115.1781682, -8.7839956 ], [ 115.178075, -8.7840188 ], [ 115.1780147, -8.7840562 ], [ 115.1779727, -8.7841655 ], [ 115.178174, -8.7844714 ], [ 115.1782129, -8.7846402 ], [ 115.1782366, -8.7847284 ], [ 115.1782521, -8.7847818 ], [ 115.1783124, -8.7849164 ], [ 115.178315, -8.7850841 ], [ 115.178269, -8.7852609 ], [ 115.1782165, -8.78541 ], [ 115.1782224, -8.7854445 ], [ 115.1781817, -8.7855403 ], [ 115.1781329, -8.7856738 ], [ 115.1780977, -8.785734 ], [ 115.1780336, -8.7858118 ], [ 115.1780158, -8.7859052 ], [ 115.1780093, -8.7859997 ], [ 115.1779889, -8.7860725 ], [ 115.1778603, -8.7862078 ], [ 115.1777575, -8.7862368 ], [ 115.1776542, -8.7863948 ], [ 115.1776292, -8.7865169 ], [ 115.1775479, -8.7866566 ], [ 115.1774257, -8.786797 ], [ 115.1774105, -8.7868386 ], [ 115.1773121, -8.7869427 ], [ 115.1772489, -8.787084 ], [ 115.17722, -8.787199 ], [ 115.1771718, -8.7873258 ], [ 115.1771362, -8.7874651 ], [ 115.1770606, -8.7876913 ], [ 115.177027, -8.7879054 ], [ 115.1770072, -8.7880213 ], [ 115.1770806, -8.7881118 ], [ 115.1770802, -8.788166 ], [ 115.1770757, -8.788238 ], [ 115.1770498, -8.7883217 ], [ 115.1770188, -8.788484 ], [ 115.1770079, -8.7886256 ], [ 115.1769996, -8.7886904 ], [ 115.176996, -8.7887535 ], [ 115.1769803, -8.7889716 ], [ 115.1769502, -8.7890752 ], [ 115.1770474, -8.789204 ], [ 115.1770545, -8.789397 ], [ 115.1771446, -8.7897991 ], [ 115.1772086, -8.7900652 ], [ 115.1774264, -8.7906352 ], [ 115.1774663, -8.7908674 ] ] ] } },
{ "type": "Feature", "properties": { "NO.SHP": "143" }, "geometry": { "type": "Polygon", "coordinates": [ [ [ 115.1609286, -8.7979992 ], [ 115.1608945, -8.7981452 ], [ 115.1652009, -8.7994872 ], [ 115.1652094, -8.7993964 ], [ 115.1609286, -8.7979992 ] ] ] } },
{ "type": "Feature", "properties": { "NO.SHP": "129" }, "geometry": { "type": "Polygon", "coordinates": [ [ [ 115.1652459, -8.7994065 ], [ 115.1652283, -8.7994863 ], [ 115.1658644, -8.7996465 ], [ 115.1662843, -8.7997495 ], [ 115.1662823, -8.7996612 ], [ 115.1659285, -8.7995812 ], [ 115.1652459, -8.7994065 ] ] ] } },
{ "type": "Feature", "properties": { "NO.SHP": "128" }, "geometry": { "type": "Polygon", "coordinates": [ [ [ 115.1652157, -8.7995122 ], [ 115.1652008, -8.799599 ], [ 115.1660866, -8.7998229 ], [ 115.1661934, -8.7997378 ], [ 115.1652157, -8.7995122 ] ] ] } },
{ "type": "Feature", "properties": { "NO.SHP": "141" }, "geometry": { "type": "Polygon", "coordinates": [ [ [ 115.1663335, -8.7997337 ], [ 115.1668112, -8.7998386 ], [ 115.1669414, -8.7999049 ], [ 115.1670445, -8.7999686 ], [ 115.1676624, -8.8000042 ], [ 115.1679188, -8.8000151 ], [ 115.1683963, -8.8000386 ], [ 115.1684204, -8.8000917 ], [ 115.1687273, -8.8001267 ], [ 115.1692987, -8.8002131 ], [ 115.1697768, -8.8002774 ], [ 115.1702266, -8.8002781 ], [ 115.1705786, -8.8002325 ], [ 115.1706232, -8.8001552 ], [ 115.1708712, -8.8001644 ], [ 115.1708615, -8.8000482 ], [ 115.1700166, -8.8000079 ], [ 115.1689661, -8.7999045 ], [ 115.167923, -8.7997951 ], [ 115.1663032, -8.7996563 ], [ 115.1663335, -8.7997337 ] ] ] } },
{ "type": "Feature", "properties": { "NO.SHP": "147" }, "geometry": { "type": "Polygon", "coordinates": [ [ [ 115.1683957, -8.8000453 ], [ 115.1670273, -8.7999704 ], [ 115.1668937, -8.7999412 ], [ 115.1668964, -8.800077 ], [ 115.1670685, -8.8000776 ], [ 115.1671574, -8.8001112 ], [ 115.1672097, -8.8001533 ], [ 115.1673104, -8.8001524 ], [ 115.1673585, -8.8001297 ], [ 115.1679256, -8.8001344 ], [ 115.1682625, -8.8001399 ], [ 115.1683836, -8.8001392 ], [ 115.1683957, -8.8000453 ] ] ] } },
{ "type": "Feature", "properties": { "NO.SHP": "918" }, "geometry": { "type": "Polygon", "coordinates": [ [ [ 115.1708535, -8.8000246 ], [ 115.1710007, -8.8000365 ], [ 115.1709765, -8.7995443 ], [ 115.1709917, -8.7993626 ], [ 115.1710278, -8.798681 ], [ 115.1710415, -8.79835 ], [ 115.1710514, -8.7980966 ], [ 115.1711214, -8.7975266 ], [ 115.1712317, -8.7974401 ], [ 115.1715204, -8.7974328 ], [ 115.1719156, -8.7975997 ], [ 115.1722351, -8.7977375 ], [ 115.1724377, -8.7977951 ], [ 115.1724584, -8.7977191 ], [ 115.1720172, -8.7975886 ], [ 115.1717009, -8.7974341 ], [ 115.1715727, -8.7973833 ], [ 115.1713041, -8.7973027 ], [ 115.1710979, -8.7972651 ], [ 115.1710441, -8.7975331 ], [ 115.1708535, -8.8000246 ] ] ] } },
{ "type": "Feature", "properties": { "NO.SHP": "940" }, "geometry": { "type": "Polygon", "coordinates": [ [ [ 115.1738941, -8.7975094 ], [ 115.1738784, -8.7975504 ], [ 115.1741156, -8.7975832 ], [ 115.1743434, -8.7976084 ], [ 115.1746585, -8.7975729 ], [ 115.1748676, -8.7974684 ], [ 115.1750903, -8.7973464 ], [ 115.1751682, -8.7972417 ], [ 115.1751955, -8.797095 ], [ 115.1752609, -8.7968128 ], [ 115.1753447, -8.7966069 ], [ 115.1754972, -8.7961395 ], [ 115.1756875, -8.795706 ], [ 115.1758063, -8.795344 ], [ 115.1758927, -8.7951112 ], [ 115.1761677, -8.7945363 ], [ 115.1765004, -8.7939261 ], [ 115.1766732, -8.7936436 ], [ 115.1768779, -8.7932386 ], [ 115.1770602, -8.7927433 ], [ 115.1772182, -8.7924731 ], [ 115.1774587, -8.7921222 ], [ 115.1775126, -8.7918356 ], [ 115.1775632, -8.7915113 ], [ 115.1775703, -8.7908847 ], [ 115.1774744, -8.7908895 ], [ 115.1774705, -8.7912621 ], [ 115.1774551, -8.7916472 ], [ 115.1774087, -8.7918904 ], [ 115.1773169, -8.7922177 ], [ 115.1771165, -8.7924671 ], [ 115.1769785, -8.7927053 ], [ 115.1768551, -8.7930432 ], [ 115.1766787, -8.7934746 ], [ 115.1765545, -8.7937107 ], [ 115.1761475, -8.7944226 ], [ 115.1758085, -8.7951373 ], [ 115.1756864, -8.7954245 ], [ 115.175547, -8.7957507 ], [ 115.1753483, -8.796275 ], [ 115.1752356, -8.7966444 ], [ 115.1751286, -8.7969702 ], [ 115.1750814, -8.7972405 ], [ 115.174954, -8.7973644 ], [ 115.1747095, -8.797464 ], [ 115.1743514, -8.7975396 ], [ 115.1738941, -8.7975094 ] ] ] } },
{ "type": "Feature", "properties": { "NO.SHP": "126" }, "geometry": { "type": "Polygon", "coordinates": [ [ [ 115.1803113, -8.7914282 ], [ 115.180277, -8.7917607 ], [ 115.1805754, -8.791778 ], [ 115.1806302, -8.7914812 ], [ 115.1803113, -8.7914282 ] ] ] } },
{ "type": "Feature", "properties": { "NO.SHP": "9700" }, "geometry": { "type": "Polygon", "coordinates": [ [ [ 115.1720909, -8.825467 ], [ 115.1719266, -8.8255468 ], [ 115.1718209, -8.8255846 ], [ 115.171755, -8.8256328 ], [ 115.1718696, -8.8258671 ], [ 115.1719759, -8.8258972 ], [ 115.1720223, -8.826132 ], [ 115.1721079, -8.8262009 ], [ 115.172244, -8.8262406 ], [ 115.1724765, -8.8260856 ], [ 115.1727133, -8.8259582 ], [ 115.1731228, -8.8258806 ], [ 115.1732112, -8.8255157 ], [ 115.1728745, -8.8254712 ], [ 115.1722422, -8.8253792 ], [ 115.1720909, -8.825467 ] ] ] } },
{ "type": "Feature", "properties": { "NO.SHP": "88" }, "geometry": { "type": "Polygon", "coordinates": [ [ [ 115.1695527, -8.7202693 ], [ 115.169581, -8.7204787 ], [ 115.1699842, -8.7204852 ], [ 115.1699688, -8.7202651 ], [ 115.1695527, -8.7202693 ] ] ] } },
{ "type": "Feature", "properties": { "NO.SHP": "27" }, "geometry": { "type": "Polygon", "coordinates": [ [ [ 115.2154087, -8.7048288 ], [ 115.2154807, -8.7058263 ], [ 115.2154962, -8.7058337 ], [ 115.2156145, -8.7058445 ], [ 115.2157923, -8.7059117 ], [ 115.215951, -8.7059636 ], [ 115.2161066, -8.7060864 ], [ 115.2161495, -8.7062124 ], [ 115.2161542, -8.7063077 ], [ 115.2161264, -8.7064239 ], [ 115.2160964, -8.7066008 ], [ 115.21616, -8.7067965 ], [ 115.2162843, -8.7068893 ], [ 115.216611, -8.7068583 ], [ 115.2166431, -8.7074308 ], [ 115.2167967, -8.707428 ], [ 115.2167948, -8.7076685 ], [ 115.2171257, -8.707665 ], [ 115.2171055, -8.7074055 ], [ 115.2169826, -8.7074077 ], [ 115.2169254, -8.7069583 ], [ 115.2167451, -8.7059992 ], [ 115.2167182, -8.7056644 ], [ 115.2158503, -8.7057272 ], [ 115.2157357, -8.7047944 ], [ 115.2154087, -8.7048288 ] ] ] } },
{ "type": "Feature", "properties": { "NO.SHP": "38" }, "geometry": { "type": "Polygon", "coordinates": [ [ [ 115.2164436, -8.6923233 ], [ 115.217627, -8.6920929 ], [ 115.217632, -8.6920391 ], [ 115.2179141, -8.6919361 ], [ 115.2178008, -8.6914307 ], [ 115.2162847, -8.6916849 ], [ 115.2164436, -8.6923233 ] ] ] } },
{ "type": "Feature", "properties": { "NO.SHP": "57" }, "geometry": { "type": "Polygon", "coordinates": [ [ [ 115.2146175, -8.6759061 ], [ 115.2147042, -8.6759073 ], [ 115.2147015, -8.6758443 ], [ 115.2152477, -8.675852 ], [ 115.2152515, -8.675554 ], [ 115.215021, -8.6755413 ], [ 115.2150072, -8.6756163 ], [ 115.2146131, -8.6756225 ], [ 115.2146175, -8.6759061 ] ] ] } },
{ "type": "Feature", "properties": { "NO.SHP": "59" }, "geometry": { "type": "Polygon", "coordinates": [ [ [ 115.2140065, -8.6758805 ], [ 115.2140533, -8.6753389 ], [ 115.2139319, -8.6753244 ], [ 115.2139273, -8.6751544 ], [ 115.2139961, -8.6751472 ], [ 115.2140008, -8.6750595 ], [ 115.2136349, -8.6750733 ], [ 115.2136093, -8.6751659 ], [ 115.2135599, -8.6751478 ], [ 115.2133989, -8.6751568 ], [ 115.2133841, -8.6752063 ], [ 115.2133503, -8.675644 ], [ 115.2133553, -8.6758106 ], [ 115.2134784, -8.6758795 ], [ 115.2140065, -8.6758805 ] ] ] } },
{ "type": "Feature", "properties": { "NO.SHP": "122" }, "geometry": { "type": "Polygon", "coordinates": [ [ [ 115.2180458, -8.6738786 ], [ 115.2180177, -8.6742185 ], [ 115.2196192, -8.6744765 ], [ 115.2196467, -8.6740687 ], [ 115.2180458, -8.6738786 ] ] ] } },
{ "type": "Feature", "properties": { "NO.SHP": "48" }, "geometry": { "type": "Polygon", "coordinates": [ [ [ 115.2180719, -8.6737996 ], [ 115.2188894, -8.673895 ], [ 115.2189139, -8.673648 ], [ 115.219834, -8.6737392 ], [ 115.2198484, -8.6736575 ], [ 115.2195959, -8.6736241 ], [ 115.2196206, -8.6733212 ], [ 115.2196864, -8.6729611 ], [ 115.2197098, -8.6727818 ], [ 115.2197257, -8.6725731 ], [ 115.2197591, -8.6723235 ], [ 115.2197925, -8.6721469 ], [ 115.2198224, -8.6719157 ], [ 115.2198392, -8.671551 ], [ 115.2190268, -8.6714561 ], [ 115.2184604, -8.6713906 ], [ 115.2182686, -8.6713645 ], [ 115.2182043, -8.6722419 ], [ 115.2180719, -8.6737996 ] ] ] } },
{ "type": "Feature", "properties": { "NO.SHP": "58" }, "geometry": { "type": "Polygon", "coordinates": [ [ [ 115.2174235, -8.6713836 ], [ 115.217355, -8.6718656 ], [ 115.2179702, -8.6719187 ], [ 115.2180074, -8.671444 ], [ 115.2174235, -8.6713836 ] ] ] } },
{ "type": "Feature", "properties": { "NO.SHP": "47" }, "geometry": { "type": "Polygon", "coordinates": [ [ [ 115.2183572, -8.671015 ], [ 115.218335, -8.671291 ], [ 115.219008, -8.6713459 ], [ 115.219033, -8.671077 ], [ 115.2183572, -8.671015 ] ] ] } },
{ "type": "Feature", "properties": { "NO.SHP": "49" }, "geometry": { "type": "Polygon", "coordinates": [ [ [ 115.2198529, -8.6711454 ], [ 115.2198471, -8.6712636 ], [ 115.219863, -8.6712752 ], [ 115.2198591, -8.6714647 ], [ 115.2200581, -8.6714864 ], [ 115.2200639, -8.6711665 ], [ 115.2198529, -8.6711454 ] ] ] } },
{ "type": "Feature", "properties": { "NO.SHP": "50" }, "geometry": { "type": "Polygon", "coordinates": [ [ [ 115.2198474, -8.6718671 ], [ 115.220331, -8.6719064 ], [ 115.2203302, -8.6715842 ], [ 115.2203446, -8.6713363 ], [ 115.2200851, -8.6713244 ], [ 115.2200799, -8.671546 ], [ 115.2198625, -8.6715379 ], [ 115.2198474, -8.6718671 ] ] ] } },
{ "type": "Feature", "properties": { "NO.SHP": "60" }, "geometry": { "type": "Polygon", "coordinates": [ [ [ 115.2151224, -8.6727559 ], [ 115.215109, -8.6729004 ], [ 115.2154208, -8.6729189 ], [ 115.2154222, -8.6727563 ], [ 115.2151224, -8.6727559 ] ] ] } },
{ "type": "Feature", "properties": { "NO.SHP": "63" }, "geometry": { "type": "Polygon", "coordinates": [ [ [ 115.2332514, -8.6663392 ], [ 115.2332353, -8.6666599 ], [ 115.2334267, -8.6666537 ], [ 115.2334385, -8.6663428 ], [ 115.2332514, -8.6663392 ] ] ] } },
{ "type": "Feature", "properties": { "NO.SHP": "17" }, "geometry": { "type": "Polygon", "coordinates": [ [ [ 115.2366328, -8.6708504 ], [ 115.2366338, -8.6710607 ], [ 115.2367769, -8.6710603 ], [ 115.2367827, -8.6708506 ], [ 115.2366328, -8.6708504 ] ] ] } }
]
}
