{
"type": "FeatureCollection",
"name": "ZONA KAWASAN",
"crs": { "type": "name", "properties": { "name": "urn:ogc:def:crs:OGC:1.3:CRS84" } },
"features": [
{ "type": "Feature", "properties": { "Name": "Kawasan Inti", "description": null, "timestamp": null, "begin": null, "end": null, "altitudeMode": null, "tessellate": -1, "extrude": 0, "visibility": -1, "drawOrder": null, "icon": null }, "geometry": { "type": "Polygon", "coordinates": [ [ [ 115.166845952160003, -8.800079924038791, 0.0 ], [ 115.168043669789995, -8.800126767204612, 0.0 ], [ 115.168793204972701, -8.800189687387169, 0.0 ], [ 115.169566240151894, -8.800230176178275, 0.0 ], [ 115.170153986362806, -8.800266255758425, 0.0 ], [ 115.170667582627203, -8.800196317135843, 0.0 ], [ 115.171177792935495, -8.800186650545946, 0.0 ], [ 115.172277255695604, -8.800143608294928, 0.0 ], [ 115.172953056938795, -8.800032272631201, 0.0 ], [ 115.173281554828307, -8.800061690186537, 0.0 ], [ 115.173477968780503, -8.799625874449198, 0.0 ], [ 115.174522241229994, -8.800098130967328, 0.0 ], [ 115.174362204930205, -8.800300302548546, 0.0 ], [ 115.174863983784206, -8.800319097321193, 0.0 ], [ 115.175500773819195, -8.800593014857373, 0.0 ], [ 115.176052710469094, -8.800756566750374, 0.0 ], [ 115.176715559586796, -8.801039560902815, 0.0 ], [ 115.177443748868995, -8.801272867372491, 0.0 ], [ 115.177568315962006, -8.800764313426697, 0.0 ], [ 115.177288215468195, -8.800694504584287, 0.0 ], [ 115.177277516684796, -8.800517254519702, 0.0 ], [ 115.1772949213494, -8.800266244869993, 0.0 ], [ 115.176741407552399, -8.800005374176873, 0.0 ], [ 115.1765725704537, -8.799748535758823, 0.0 ], [ 115.176288642709594, -8.799597901768959, 0.0 ], [ 115.176238848820802, -8.79941344239864, 0.0 ], [ 115.176331910946303, -8.799207509696478, 0.0 ], [ 115.176342523874496, -8.799126156396621, 0.0 ], [ 115.176424163621505, -8.798895624718837, 0.0 ], [ 115.176280071174801, -8.798828726682769, 0.0 ], [ 115.176337629011101, -8.798724367026196, 0.0 ], [ 115.176221977420497, -8.798651072144377, 0.0 ], [ 115.176370886025396, -8.797544713333961, 0.0 ], [ 115.1752293816605, -8.797351881954235, 0.0 ], [ 115.175290564630899, -8.796889480173745, 0.0 ], [ 115.175761395025106, -8.797007546168679, 0.0 ], [ 115.175998975956901, -8.79641679987671, 0.0 ], [ 115.176848845304207, -8.796585521474048, 0.0 ], [ 115.177279585614897, -8.796750248701812, 0.0 ], [ 115.177433193277395, -8.796307757146344, 0.0 ], [ 115.177536066530195, -8.795679551359504, 0.0 ], [ 115.1777145154105, -8.795244833483901, 0.0 ], [ 115.177314443888406, -8.795060064130661, 0.0 ], [ 115.176867734343602, -8.794954193866317, 0.0 ], [ 115.176067217825405, -8.794799514566069, 0.0 ], [ 115.176648569224795, -8.793722856807138, 0.0 ], [ 115.177270319589297, -8.793851456475766, 0.0 ], [ 115.177501715439703, -8.793373624927323, 0.0 ], [ 115.177907031110195, -8.793564791257715, 0.0 ], [ 115.178377008332006, -8.793757770711496, 0.0 ], [ 115.178716172380305, -8.793886408766827, 0.0 ], [ 115.178852908854594, -8.793491045475257, 0.0 ], [ 115.1791236302237, -8.792934127508293, 0.0 ], [ 115.179638053816205, -8.79219148413967, 0.0 ], [ 115.179875506575797, -8.791341626378976, 0.0 ], [ 115.179940449468305, -8.790426819960127, 0.0 ], [ 115.179451562633403, -8.79003608193011, 0.0 ], [ 115.177992874605593, -8.789449800268676, 0.0 ], [ 115.177969941249799, -8.790013209133281, 0.0 ], [ 115.177965738132201, -8.791079760729525, 0.0 ], [ 115.177513709388407, -8.790965038623067, 0.0 ], [ 115.177419575537996, -8.791851301588158, 0.0 ], [ 115.177231226125599, -8.792272025972755, 0.0 ], [ 115.176938834393098, -8.792914892876519, 0.0 ], [ 115.176495174997797, -8.79374822031691, 0.0 ], [ 115.175973720331498, -8.79472252749763, 0.0 ], [ 115.175776770424605, -8.795118850449409, 0.0 ], [ 115.175557456486899, -8.79572529978407, 0.0 ], [ 115.175285587715706, -8.796540920615605, 0.0 ], [ 115.175078442286207, -8.797285795329683, 0.0 ], [ 115.1743168235555, -8.797573750342728, 0.0 ], [ 115.173465146756101, -8.797466273456577, 0.0 ], [ 115.172961379323795, -8.797416256769935, 0.0 ], [ 115.172581613071301, -8.797722363592271, 0.0 ], [ 115.172176761886703, -8.79769634960679, 0.0 ], [ 115.171372119172702, -8.797293395263354, 0.0 ], [ 115.171112162668706, -8.797108608912996, 0.0 ], [ 115.171219845489205, -8.796677045259143, 0.0 ], [ 115.170110841788798, -8.796059105436928, 0.0 ], [ 115.169377467763596, -8.795677111392273, 0.0 ], [ 115.169120278064796, -8.796160088516213, 0.0 ], [ 115.168644393399205, -8.796546575696455, 0.0 ], [ 115.168322416711803, -8.796869898916492, 0.0 ], [ 115.168191521293707, -8.797192302480335, 0.0 ], [ 115.167936100612494, -8.797880192246375, 0.0 ], [ 115.167745356444996, -8.798319758645437, 0.0 ], [ 115.167509601467003, -8.798343828028443, 0.0 ], [ 115.166781113609204, -8.798396823061958, 0.0 ], [ 115.166386003766306, -8.798437686571196, 0.0 ], [ 115.166115680607803, -8.798594469903026, 0.0 ], [ 115.166060825876002, -8.798767702623238, 0.0 ], [ 115.166128821566105, -8.79902962103429, 0.0 ], [ 115.166225794784793, -8.799214461315028, 0.0 ], [ 115.166289647329293, -8.799402803651528, 0.0 ], [ 115.166450143515604, -8.799656964104596, 0.0 ], [ 115.166845952160003, -8.800079924038791, 0.0 ] ] ] } },
{ "type": "Feature", "properties": { "Name": "Kawasan Penyangga", "description": null, "timestamp": null, "begin": null, "end": null, "altitudeMode": null, "tessellate": -1, "extrude": 0, "visibility": -1, "drawOrder": null, "icon": null }, "geometry": { "type": "Polygon", "coordinates": [ [ [ 115.171428303758404, -8.795808190398654, 0.0 ], [ 115.171545518888095, -8.795313107496082, 0.0 ], [ 115.171641602366293, -8.795095594784469, 0.0 ], [ 115.172032689526802, -8.794495014022797, 0.0 ], [ 115.172607629316303, -8.794775406522776, 0.0 ], [ 115.172570336672393, -8.794716965526574, 0.0 ], [ 115.173311585545804, -8.794946244470809, 0.0 ], [ 115.174358975428802, -8.795318558780833, 0.0 ], [ 115.173972875040405, -8.795707883899349, 0.0 ], [ 115.173611309497502, -8.796049901874945, 0.0 ], [ 115.173098922784405, -8.79647809750371, 0.0 ], [ 115.172689489141504, -8.796962331692219, 0.0 ], [ 115.172474038239002, -8.797694050770311, 0.0 ], [ 115.172626574932707, -8.797699912341827, 0.0 ], [ 115.173001198648393, -8.797414517235197, 0.0 ], [ 115.174308285034002, -8.797559513457108, 0.0 ], [ 115.175066997676794, -8.797259031089439, 0.0 ], [ 115.175420975594093, -8.796084954659952, 0.0 ], [ 115.175827770159103, -8.795002100428682, 0.0 ], [ 115.176288731298996, -8.794169146293726, 0.0 ], [ 115.176880739561994, -8.793058547745691, 0.0 ], [ 115.177092748611699, -8.792539043214495, 0.0 ], [ 115.177441874290494, -8.791825031622984, 0.0 ], [ 115.177493819273593, -8.790981654534644, 0.0 ], [ 115.177476285297899, -8.790752682479981, 0.0 ], [ 115.177252132019603, -8.790692496459251, 0.0 ], [ 115.177046409487403, -8.791177435772312, 0.0 ], [ 115.176830677852095, -8.791766216858973, 0.0 ], [ 115.176457023419204, -8.79203613716113, 0.0 ], [ 115.176262235412096, -8.792526603867419, 0.0 ], [ 115.175948569290597, -8.792726195152591, 0.0 ], [ 115.175684978837197, -8.79258265130818, 0.0 ], [ 115.175853442568396, -8.792223430815749, 0.0 ], [ 115.174610618551796, -8.791905585414343, 0.0 ], [ 115.174630157532206, -8.791665519250035, 0.0 ], [ 115.173027114186198, -8.79115096132648, 0.0 ], [ 115.172653837788701, -8.792347478432411, 0.0 ], [ 115.172478528606305, -8.792994043857735, 0.0 ], [ 115.171330710663398, -8.792658642050947, 0.0 ], [ 115.171002626739593, -8.79309792179404, 0.0 ], [ 115.170714292738296, -8.792881498917161, 0.0 ], [ 115.170857074774602, -8.792389917244744, 0.0 ], [ 115.171319789888798, -8.79257196508267, 0.0 ], [ 115.171650717723097, -8.792243828735364, 0.0 ], [ 115.172092158246301, -8.792186498563325, 0.0 ], [ 115.172652785469595, -8.792344761774341, 0.0 ], [ 115.173020810520796, -8.791154664842404, 0.0 ], [ 115.172534706917205, -8.790371040631348, 0.0 ], [ 115.172191392802802, -8.789823107278156, 0.0 ], [ 115.172079521416094, -8.789658015405749, 0.0 ], [ 115.171988464683096, -8.789727150726961, 0.0 ], [ 115.171639557762006, -8.790254550976174, 0.0 ], [ 115.171602378352702, -8.790841235554689, 0.0 ], [ 115.171481391523699, -8.791000014564229, 0.0 ], [ 115.171353374595299, -8.79128474724112, 0.0 ], [ 115.171028952023605, -8.79156170719072, 0.0 ], [ 115.170668298971805, -8.791589179908282, 0.0 ], [ 115.170403276803896, -8.791590185853993, 0.0 ], [ 115.169952860109106, -8.791399168520682, 0.0 ], [ 115.169433147932594, -8.791092488902727, 0.0 ], [ 115.169263085124101, -8.791618294214437, 0.0 ], [ 115.168784924381796, -8.792008511107122, 0.0 ], [ 115.168433919867695, -8.792122203624038, 0.0 ], [ 115.168209158525599, -8.792329140356417, 0.0 ], [ 115.167919655684997, -8.792716684440308, 0.0 ], [ 115.168487136658896, -8.793013360448576, 0.0 ], [ 115.168762375277794, -8.793424911358763, 0.0 ], [ 115.169171109160402, -8.793936584445605, 0.0 ], [ 115.169532669098601, -8.794526963196574, 0.0 ], [ 115.169508898650506, -8.795230346978368, 0.0 ], [ 115.169388710888597, -8.795675832543434, 0.0 ], [ 115.171224995686998, -8.796656711292989, 0.0 ], [ 115.171126049095605, -8.797107326211172, 0.0 ], [ 115.171525464358695, -8.797355498364295, 0.0 ], [ 115.171803863539793, -8.796242652370017, 0.0 ], [ 115.171930576172002, -8.796061976675807, 0.0 ], [ 115.171428303758404, -8.795808190398654, 0.0 ] ] ] } },
{ "type": "Feature", "properties": { "Name": "Kawasan Pelayanan Kesehatan", "description": null, "timestamp": null, "begin": null, "end": null, "altitudeMode": null, "tessellate": -1, "extrude": 0, "visibility": -1, "drawOrder": null, "icon": null }, "geometry": { "type": "Polygon", "coordinates": [ [ [ 115.174637264395002, -8.791634446651162, 0.0 ], [ 115.174876668344794, -8.791215351653225, 0.0 ], [ 115.175659501676606, -8.791471340965208, 0.0 ], [ 115.175891633003999, -8.791171569098898, 0.0 ], [ 115.175120265420702, -8.790583223692629, 0.0 ], [ 115.175405931535906, -8.790316425103029, 0.0 ], [ 115.1751222668655, -8.790078887816987, 0.0 ], [ 115.175215357605097, -8.789813573047613, 0.0 ], [ 115.175377687737495, -8.789268798845679, 0.0 ], [ 115.176814502800298, -8.789543502658637, 0.0 ], [ 115.176990765764003, -8.788988854986489, 0.0 ], [ 115.1769560310061, -8.788603822232533, 0.0 ], [ 115.175808106984903, -8.788527275090336, 0.0 ], [ 115.175788353765896, -8.789066365031795, 0.0 ], [ 115.174796983029594, -8.789084913972006, 0.0 ], [ 115.174008131173807, -8.789078642997149, 0.0 ], [ 115.173607098827205, -8.789133773533216, 0.0 ], [ 115.173170494777807, -8.789250345107387, 0.0 ], [ 115.172255390188894, -8.789599386832817, 0.0 ], [ 115.172078957214396, -8.789649191070732, 0.0 ], [ 115.173023665355799, -8.791141681640733, 0.0 ], [ 115.174637264395002, -8.791634446651162, 0.0 ] ] ] } },
{ "type": "Feature", "properties": { "Name": "Kawasan Hunian", "description": null, "timestamp": null, "begin": null, "end": null, "altitudeMode": null, "tessellate": -1, "extrude": 0, "visibility": -1, "drawOrder": null, "icon": null }, "geometry": { "type": "Polygon", "coordinates": [ [ [ 115.172035052692806, -8.789594131349238, 0.0 ], [ 115.171739939823198, -8.789363892948664, 0.0 ], [ 115.1713249257553, -8.789075482230206, 0.0 ], [ 115.171227327674103, -8.788815883232477, 0.0 ], [ 115.171348110775796, -8.788576798905487, 0.0 ], [ 115.171084073248593, -8.788451635580184, 0.0 ], [ 115.170605676904003, -8.789298610475454, 0.0 ], [ 115.170294325712803, -8.789185460524493, 0.0 ], [ 115.169901469650995, -8.79006321109928, 0.0 ], [ 115.168652257854703, -8.789509436147991, 0.0 ], [ 115.168486920457596, -8.7899403355323, 0.0 ], [ 115.167868793202601, -8.789899035209707, 0.0 ], [ 115.167635100477597, -8.790053158079729, 0.0 ], [ 115.167245058495197, -8.790450051931993, 0.0 ], [ 115.166604745547104, -8.790950102504873, 0.0 ], [ 115.165686652533296, -8.790439596224262, 0.0 ], [ 115.165507921738893, -8.790699678589606, 0.0 ], [ 115.166340102030702, -8.79116856591599, 0.0 ], [ 115.166252354354498, -8.791470675923746, 0.0 ], [ 115.166839878097093, -8.791903536200039, 0.0 ], [ 115.167139691585703, -8.792237845162566, 0.0 ], [ 115.167255730106007, -8.792487175062325, 0.0 ], [ 115.167213997730101, -8.792890078494004, 0.0 ], [ 115.166965158213799, -8.792818267510849, 0.0 ], [ 115.166568380961607, -8.792609783413575, 0.0 ], [ 115.166158795450698, -8.792397124175796, 0.0 ], [ 115.165814218926499, -8.792099333928897, 0.0 ], [ 115.165603187434698, -8.792011078677652, 0.0 ], [ 115.165278422494893, -8.792074766959905, 0.0 ], [ 115.165128622218404, -8.792549362797009, 0.0 ], [ 115.164750747003495, -8.792926668594848, 0.0 ], [ 115.164453366981405, -8.792999462341324, 0.0 ], [ 115.164426132520404, -8.793272854018404, 0.0 ], [ 115.164306443266398, -8.793579249390788, 0.0 ], [ 115.164924824980403, -8.793705245342036, 0.0 ], [ 115.165767156242495, -8.793683785180628, 0.0 ], [ 115.166086748898095, -8.793640897630665, 0.0 ], [ 115.166453795034599, -8.793084717053716, 0.0 ], [ 115.167307599423594, -8.792998044820569, 0.0 ], [ 115.167898378616499, -8.792741713335714, 0.0 ], [ 115.1682308956143, -8.792283700694899, 0.0 ], [ 115.168439014550799, -8.792102450924087, 0.0 ], [ 115.168796048975594, -8.791969412274577, 0.0 ], [ 115.1692813717315, -8.791603689612929, 0.0 ], [ 115.169424361283404, -8.791082854197054, 0.0 ], [ 115.169743012356406, -8.791266941628482, 0.0 ], [ 115.169978655550196, -8.791410021150659, 0.0 ], [ 115.170416560148794, -8.791587696557004, 0.0 ], [ 115.171059028894604, -8.7915444931241, 0.0 ], [ 115.171339821724501, -8.791271846324481, 0.0 ], [ 115.171471407525601, -8.790980407012407, 0.0 ], [ 115.171606220229904, -8.790831709028604, 0.0 ], [ 115.171633966652493, -8.79048119661558, 0.0 ], [ 115.171645195636799, -8.790245512770944, 0.0 ], [ 115.172065667462206, -8.789646166877198, 0.0 ], [ 115.172035052692806, -8.789594131349238, 0.0 ] ] ] } },
{ "type": "Feature", "properties": { "Name": "Kawasan Komersil", "description": null, "timestamp": null, "begin": null, "end": null, "altitudeMode": null, "tessellate": -1, "extrude": 0, "visibility": -1, "drawOrder": null, "icon": null }, "geometry": { "type": "Polygon", "coordinates": [ [ [ 115.163148434130704, -8.798741703782456, 0.0 ], [ 115.1651090740218, -8.799420999174036, 0.0 ], [ 115.166490990665594, -8.79972561250716, 0.0 ], [ 115.166125165567195, -8.799020352821252, 0.0 ], [ 115.166048644646494, -8.798766159301364, 0.0 ], [ 115.166111446722695, -8.798601031967502, 0.0 ], [ 115.166378974922495, -8.798443851467496, 0.0 ], [ 115.167738030220093, -8.798327445689679, 0.0 ], [ 115.168301997397407, -8.796876620763374, 0.0 ], [ 115.168602841323704, -8.796575495862669, 0.0 ], [ 115.1691169489809, -8.796165869187602, 0.0 ], [ 115.169384415337902, -8.79566623630021, 0.0 ], [ 115.169510565971194, -8.795230985660018, 0.0 ], [ 115.169534801883003, -8.794533926585173, 0.0 ], [ 115.169188982946807, -8.793951790580101, 0.0 ], [ 115.168927566603301, -8.793632520409661, 0.0 ], [ 115.168491837587098, -8.793013836641389, 0.0 ], [ 115.167939021444198, -8.792724943419884, 0.0 ], [ 115.1672998247751, -8.793004466292345, 0.0 ], [ 115.166457374312699, -8.79308901791547, 0.0 ], [ 115.166087211207, -8.79365418057257, 0.0 ], [ 115.166125167190799, -8.794059490369868, 0.0 ], [ 115.166091615247396, -8.795031990740593, 0.0 ], [ 115.166465980736007, -8.795217897445994, 0.0 ], [ 115.166124683391004, -8.796239112785198, 0.0 ], [ 115.165779611403906, -8.79705624413165, 0.0 ], [ 115.163912404659996, -8.796521651426511, 0.0 ], [ 115.163719206333894, -8.79693789510717, 0.0 ], [ 115.163567777231407, -8.797703896227073, 0.0 ], [ 115.164835640951907, -8.79811088124289, 0.0 ], [ 115.164736612739901, -8.798515001189918, 0.0 ], [ 115.164109198010806, -8.798366795033859, 0.0 ], [ 115.163350921304897, -8.798202635531773, 0.0 ], [ 115.163526960976995, -8.797712678480321, 0.0 ], [ 115.163697027231507, -8.796920033852, 0.0 ], [ 115.163861142560606, -8.796539038898535, 0.0 ], [ 115.163672264435505, -8.796017510913238, 0.0 ], [ 115.163732898252803, -8.795467491702276, 0.0 ], [ 115.163721895610394, -8.795416829098944, 0.0 ], [ 115.163786183421607, -8.795159358459054, 0.0 ], [ 115.163814744878493, -8.794888991503045, 0.0 ], [ 115.163321987239698, -8.794765423750313, 0.0 ], [ 115.163508481338098, -8.794436524235694, 0.0 ], [ 115.163763603318898, -8.79400139736935, 0.0 ], [ 115.163772639066593, -8.793717553793432, 0.0 ], [ 115.163946993412793, -8.793679696551106, 0.0 ], [ 115.164090740951494, -8.793540475286953, 0.0 ], [ 115.164341312568794, -8.79361825085947, 0.0 ], [ 115.164184367109499, -8.794303091467221, 0.0 ], [ 115.164035246622305, -8.794914303773687, 0.0 ], [ 115.164210433904401, -8.794960736207777, 0.0 ], [ 115.164117527641906, -8.795362849518821, 0.0 ], [ 115.164655794443604, -8.795494104851789, 0.0 ], [ 115.1646124724289, -8.795757489913887, 0.0 ], [ 115.164234473530897, -8.795804496125298, 0.0 ], [ 115.163715771143202, -8.795690655053154, 0.0 ], [ 115.163706254827005, -8.795746253911954, 0.0 ], [ 115.163675842887898, -8.796022135375596, 0.0 ], [ 115.163513301894099, -8.796004735394629, 0.0 ], [ 115.163275740464897, -8.795966841606168, 0.0 ], [ 115.162885595262694, -8.7959011299741, 0.0 ], [ 115.162467108180905, -8.795756984351787, 0.0 ], [ 115.162543812536896, -8.795485997344469, 0.0 ], [ 115.162752730445803, -8.795367236836414, 0.0 ], [ 115.1629754110661, -8.795267046948288, 0.0 ], [ 115.163414798042794, -8.795368716016299, 0.0 ], [ 115.163725519684704, -8.795469706300889, 0.0 ], [ 115.163716678496897, -8.795694481173991, 0.0 ], [ 115.162779031560405, -8.795391139193033, 0.0 ], [ 115.162902285880406, -8.795188636726669, 0.0 ], [ 115.163182755442307, -8.795029385148027, 0.0 ], [ 115.163299775805399, -8.794930051041668, 0.0 ], [ 115.163334675263499, -8.794766471258505, 0.0 ], [ 115.163511483513801, -8.794439173124491, 0.0 ], [ 115.163751744245701, -8.793978074384068, 0.0 ], [ 115.163788532875998, -8.793708257225138, 0.0 ], [ 115.1631603138716, -8.793409183507478, 0.0 ], [ 115.1630457919468, -8.793727321662532, 0.0 ], [ 115.162612002001694, -8.794874667843843, 0.0 ], [ 115.162187031337595, -8.795583507976348, 0.0 ], [ 115.162502519965102, -8.795810432641572, 0.0 ], [ 115.163011802532907, -8.795987738853203, 0.0 ], [ 115.163660613264597, -8.796121107445558, 0.0 ], [ 115.163592415927099, -8.796686894698649, 0.0 ], [ 115.163416863457002, -8.79728023253112, 0.0 ], [ 115.163197800352194, -8.798012962347517, 0.0 ], [ 115.162717279764095, -8.797925475369118, 0.0 ], [ 115.162089522355998, -8.797782550792837, 0.0 ], [ 115.161103738077301, -8.797425815924916, 0.0 ], [ 115.160846473171205, -8.798045653854583, 0.0 ], [ 115.161153051998099, -8.798138584037902, 0.0 ], [ 115.163148434130704, -8.798741703782456, 0.0 ] ] ] } }
]
}
